{"type": "FeatureCollection", "features": [{"type": "Feature", "properties": {}, "geometry": {"type": "Polygon", "coordinates": [[[-83.2604, 8.4586], [-83.2604, 8.45806], [-83.26205, 8.45806], [-83.26205, 8.45751], [-83.26315, 8.45751], [-83.26315, 8.45697], [-83.26535, 8.45697], [-83.26535, 8.45642], [-83.267, 8.45642], [-83.267, 8.45588], [-83.2681, 8.45588], [-83.2681, 8.45534], [-83.26865, 8.45534], [-83.26865, 8.45099], [-83.2681, 8.45099], [-83.2681, 8.4499], [-83.26755, 8.4499], [-83.26755, 8.44935], [-83.267, 8.44935], [-83.267, 8.44881], [-83.26645, 8.44881], [-83.26645, 8.44827], [-83.26535, 8.44827], [-83.26535, 8.44772], [-83.2648, 8.44772], [-83.2648, 8.44718], [-83.2626, 8.44718], [-83.2626, 8.44664], [-83.2593, 8.44664], [-83.2593, 8.44718], [-83.25765, 8.44718], [-83.25765, 8.44772], [-83.25655, 8.44772], [-83.25655, 8.44827], [-83.25545, 8.44827], [-83.25545, 8.44881], [-83.2549, 8.44881], [-83.2549, 8.44935], [-83.2538, 8.44935], [-83.2538, 8.4499], [-83.2527, 8.4499], [-83.2527, 8.45044], [-83.2516, 8.45044], [-83.2516, 8.45099], [-83.25105, 8.45099], [-83.25105, 8.45316], [-83.2516, 8.45316], [-83.2516, 8.45425], [-83.25215, 8.45425], [-83.25215, 8.45479], [-83.2527, 8.45479], [-83.2527, 8.45588], [-83.2538, 8.45588], [-83.2538, 8.45642], [-83.25435, 8.45642], [-83.25435, 8.45697], [-83.25545, 8.45697], [-83.25545, 8.45751], [-83.25655, 8.45751], [-83.25655, 8.45806], [-83.2582, 8.45806], [-83.2582, 8.4586], [-83.2604, 8.4586]]]}}, {"type": "Feature", "properties": {}, "geometry": {"type": "Polygon", "coordinates": [[[-83.60129, 8.80121], [-83.60129, 8.47818], [-83.60074, 8.47818], [-83.60074, 8.47763], [-83.60019, 8.47763], [-83.60019, 8.47546], [-83.59964, 8.47546], [-83.59964, 8.47274], [-83.59909, 8.47274], [-83.59909, 8.46893], [-83.59854, 8.46893], [-83.59854, 8.4673], [-83.59799, 8.4673], [-83.59799, 8.46676], [-83.59744, 8.46676], [-83.59744, 8.46621], [-83.59689, 8.46621], [-83.59689, 8.46567], [-83.59634, 8.46567], [-83.59634, 8.46513], [-83.59579, 8.46513], [-83.59579, 8.46458], [-83.59524, 8.46458], [-83.59524, 8.46349], [-83.59469, 8.46349], [-83.59469, 8.46241], [-83.59414, 8.46241], [-83.59414, 8.46186], [-83.59359, 8.46186], [-83.59359, 8.46132], [-83.59304, 8.46132], [-83.59304, 8.46078], [-83.59249, 8.46078], [-83.59249, 8.45969], [-83.59194, 8.45969], [-83.59194, 8.45642], [-83.59249, 8.45642], [-83.59249, 8.45534], [-83.59304, 8.45534], [-83.59304, 8.45479], [-83.59359, 8.45479], [-83.59359, 8.45316], [-83.59414, 8.45316], [-83.59414, 8.445], [-83.59469, 8.445], [-83.59469, 8.44446], [-83.59524, 8.44446], [-83.59524, 8.44337], [-83.59579, 8.44337], [-83.59579, 8.43793], [-83.59524, 8.43793], [-83.59524, 8.43685], [-83.59469, 8.43685], [-83.59469, 8.43576], [-83.59414, 8.43576], [-83.59414, 8.43522], [-83.59359, 8.43522], [-83.59359, 8.43467], [-83.59304, 8.43467], [-83.59304, 8.43413], [-83.58644, 8.43413], [-83.58644, 8.43358], [-83.58424, 8.43358], [-83.58424, 8.43304], [-83.57985, 8.43304], [-83.57985, 8.4325], [-83.57875, 8.4325], [-83.57875, 8.43195], [-83.5782, 8.43195], [-83.5782, 8.43141], [-83.57765, 8.43141], [-83.57765, 8.43086], [-83.5771, 8.43086], [-83.5771, 8.43032], [-83.57655, 8.43032], [-83.57655, 8.42923], [-83.576, 8.42923], [-83.576, 8.42706], [-83.57545, 8.42706], [-83.57545, 8.42108], [-83.5749, 8.42108], [-83.5749, 8.42053], [-83.5738, 8.42053], [-83.5738, 8.41999], [-83.5727, 8.41999], [-83.5727, 8.42053], [-83.5716, 8.42053], [-83.5716, 8.42108], [-83.57105, 8.42108], [-83.57105, 8.42162], [-83.5705, 8.42162], [-83.5705, 8.42488], [-83.56995, 8.42488], [-83.56995, 8.42597], [-83.5694, 8.42597], [-83.5694, 8.42651], [-83.56885, 8.42651], [-83.56885, 8.42706], [-83.5683, 8.42706], [-83.5683, 8.4276], [-83.56665, 8.4276], [-83.56665, 8.42815], [-83.565, 8.42815], [-83.565, 8.42869], [-83.56005, 8.42869], [-83.56005, 8.42815], [-83.5584, 8.42815], [-83.5584, 8.4276], [-83.5573, 8.4276], [-83.5573, 8.42706], [-83.5562, 8.42706], [-83.5562, 8.42651], [-83.55565, 8.42651], [-83.55565, 8.42597], [-83.5551, 8.42597], [-83.5551, 8.42543], [-83.554, 8.42543], [-83.554, 8.42488], [-83.55345, 8.42488], [-83.55345, 8.42434], [-83.5529, 8.42434], [-83.5529, 8.42379], [-83.55235, 8.42379], [-83.55235, 8.42325], [-83.5518, 8.42325], [-83.5518, 8.42271], [-83.55125, 8.42271], [-83.55125, 8.42162], [-83.5507, 8.42162], [-83.5507, 8.42108], [-83.55015, 8.42108], [-83.55015, 8.42053], [-83.54961, 8.42053], [-83.54961, 8.41999], [-83.54906, 8.41999], [-83.54906, 8.41944], [-83.54796, 8.41944], [-83.54796, 8.4189], [-83.54576, 8.4189], [-83.54576, 8.41836], [-83.54411, 8.41836], [-83.54411, 8.41781], [-83.54246, 8.41781], [-83.54246, 8.41727], [-83.54136, 8.41727], [-83.54136, 8.41673], [-83.53916, 8.41673], [-83.53916, 8.41727], [-83.53806, 8.41727], [-83.53806, 8.41781], [-83.53751, 8.41781], [-83.53751, 8.41836], [-83.53641, 8.41836], [-83.53641, 8.4189], [-83.53586, 8.4189], [-83.53586, 8.41944], [-83.53531, 8.41944], [-83.53531, 8.41999], [-83.53476, 8.41999], [-83.53476, 8.42053], [-83.53421, 8.42053], [-83.53421, 8.42108], [-83.53366, 8.42108], [-83.53366, 8.42162], [-83.53311, 8.42162], [-83.53311, 8.42216], [-83.53256, 8.42216], [-83.53256, 8.42271], [-83.53146, 8.42271], [-83.53146, 8.42325], [-83.52706, 8.42325], [-83.52706, 8.42271], [-83.52541, 8.42271], [-83.52541, 8.42216], [-83.52376, 8.42216], [-83.52376, 8.42162], [-83.51772, 8.42162], [-83.51772, 8.42108], [-83.51607, 8.42108], [-83.51607, 8.42053], [-83.51497, 8.42053], [-83.51497, 8.41999], [-83.51442, 8.41999], [-83.51442, 8.41944], [-83.51332, 8.41944], [-83.51332, 8.4189], [-83.51277, 8.4189], [-83.51277, 8.41836], [-83.51222, 8.41836], [-83.51222, 8.41781], [-83.51167, 8.41781], [-83.51167, 8.41727], [-83.51112, 8.41727], [-83.51112, 8.41673], [-83.51057, 8.41673], [-83.51057, 8.41618], [-83.51002, 8.41618], [-83.51002, 8.41564], [-83.50892, 8.41564], [-83.50892, 8.41509], [-83.50782, 8.41509], [-83.50782, 8.41564], [-83.50617, 8.41564], [-83.50617, 8.41618], [-83.50507, 8.41618], [-83.50507, 8.41673], [-83.50452, 8.41673], [-83.50452, 8.41727], [-83.50397, 8.41727], [-83.50397, 8.41781], [-83.50342, 8.41781], [-83.50342, 8.41836], [-83.50287, 8.41836], [-83.50287, 8.4189], [-83.50232, 8.4189], [-83.50232, 8.41944], [-83.50177, 8.41944], [-83.50177, 8.42053], [-83.50122, 8.42053], [-83.50122, 8.42108], [-83.50067, 8.42108], [-83.50067, 8.42162], [-83.50012, 8.42162], [-83.50012, 8.42216], [-83.49957, 8.42216], [-83.49957, 8.42271], [-83.49902, 8.42271], [-83.49902, 8.42325], [-83.49792, 8.42325], [-83.49792, 8.42379], [-83.49737, 8.42379], [-83.49737, 8.42434], [-83.49682, 8.42434], [-83.49682, 8.42488], [-83.49572, 8.42488], [-83.49572, 8.42543], [-83.49517, 8.42543], [-83.49517, 8.42597], [-83.49462, 8.42597], [-83.49462, 8.42651], [-83.49407, 8.42651], [-83.49407, 8.42706], [-83.49352, 8.42706], [-83.49352, 8.4276], [-83.49297, 8.4276], [-83.49297, 8.42815], [-83.49242, 8.42815], [-83.49242, 8.42923], [-83.49187, 8.42923], [-83.49187, 8.43141], [-83.49242, 8.43141], [-83.49242, 8.43413], [-83.49297, 8.43413], [-83.49297, 8.4363], [-83.49352, 8.4363], [-83.49352, 8.43848], [-83.49407, 8.43848], [-83.49407, 8.43902], [-83.49517, 8.43902], [-83.49517, 8.43957], [-83.49572, 8.43957], [-83.49572, 8.44065], [-83.49407, 8.44065], [-83.49407, 8.4412], [-83.49132, 8.4412], [-83.49132, 8.44065], [-83.48858, 8.44065], [-83.48858, 8.44011], [-83.48693, 8.44011], [-83.48693, 8.43957], [-83.48528, 8.43957], [-83.48528, 8.43902], [-83.48363, 8.43902], [-83.48363, 8.43848], [-83.48198, 8.43848], [-83.48198, 8.43793], [-83.47978, 8.43793], [-83.47978, 8.43739], [-83.47813, 8.43739], [-83.47813, 8.43685], [-83.47648, 8.43685], [-83.47648, 8.4363], [-83.47153, 8.4363], [-83.47153, 8.43685], [-83.46383, 8.43685], [-83.46383, 8.4363], [-83.46218, 8.4363], [-83.46218, 8.43576], [-83.46053, 8.43576], [-83.46053, 8.43522], [-83.45669, 8.43522], [-83.45669, 8.43467], [-83.45119, 8.43467], [-83.45119, 8.43413], [-83.44404, 8.43413], [-83.44404, 8.43467], [-83.43909, 8.43467], [-83.43909, 8.43413], [-83.43524, 8.43413], [-83.43524, 8.43358], [-83.43414, 8.43358], [-83.43414, 8.43304], [-83.43304, 8.43304], [-83.43304, 8.4325], [-83.43249, 8.4325], [-83.43249, 8.43086], [-83.43194, 8.43086], [-83.43194, 8.42923], [-83.43139, 8.42923], [-83.43139, 8.42815], [-83.43084, 8.42815], [-83.43084, 8.4276], [-83.43029, 8.4276], [-83.43029, 8.42706], [-83.4226, 8.42706], [-83.4226, 8.42651], [-83.41985, 8.42651], [-83.41985, 8.42597], [-83.4182, 8.42597], [-83.4182, 8.42543], [-83.41655, 8.42543], [-83.41655, 8.42488], [-83.416, 8.42488], [-83.416, 8.42434], [-83.41545, 8.42434], [-83.41545, 8.42271], [-83.4149, 8.42271], [-83.4149, 8.42053], [-83.41435, 8.42053], [-83.41435, 8.41999], [-83.4138, 8.41999], [-83.4138, 8.41944], [-83.41325, 8.41944], [-83.41325, 8.4189], [-83.4127, 8.4189], [-83.4127, 8.41836], [-83.4061, 8.41836], [-83.4061, 8.41781], [-83.405, 8.41781], [-83.405, 8.41727], [-83.40445, 8.41727], [-83.40445, 8.41673], [-83.4039, 8.41673], [-83.4039, 8.41618], [-83.4028, 8.41618], [-83.4028, 8.41564], [-83.4017, 8.41564], [-83.4017, 8.41509], [-83.39181, 8.41509], [-83.39181, 8.41455], [-83.38796, 8.41455], [-83.38796, 8.41401], [-83.38741, 8.41401], [-83.38741, 8.41346], [-83.38686, 8.41346], [-83.38686, 8.41292], [-83.38631, 8.41292], [-83.38631, 8.41183], [-83.38576, 8.41183], [-83.38576, 8.41129], [-83.38521, 8.41129], [-83.38521, 8.41074], [-83.38301, 8.41074], [-83.38301, 8.4102], [-83.38081, 8.4102], [-83.38081, 8.40966], [-83.37971, 8.40966], [-83.37971, 8.40911], [-83.37916, 8.40911], [-83.37916, 8.40802], [-83.37861, 8.40802], [-83.37861, 8.40748], [-83.37806, 8.40748], [-83.37806, 8.40639], [-83.37751, 8.40639], [-83.37751, 8.40585], [-83.37696, 8.40585], [-83.37696, 8.4053], [-83.37586, 8.4053], [-83.37586, 8.40422], [-83.37531, 8.40422], [-83.37531, 8.40367], [-83.37476, 8.40367], [-83.37476, 8.40313], [-83.37421, 8.40313], [-83.37421, 8.40259], [-83.37366, 8.40259], [-83.37366, 8.40204], [-83.37201, 8.40204], [-83.37201, 8.4015], [-83.36981, 8.4015], [-83.36981, 8.40204], [-83.36762, 8.40204], [-83.36762, 8.4015], [-83.36047, 8.4015], [-83.36047, 8.40095], [-83.35882, 8.40095], [-83.35882, 8.40041], [-83.35772, 8.40041], [-83.35772, 8.39987], [-83.35717, 8.39987], [-83.35717, 8.39878], [-83.35662, 8.39878], [-83.35662, 8.39388], [-83.35607, 8.39388], [-83.35607, 8.3928], [-83.35552, 8.3928], [-83.35552, 8.39225], [-83.35497, 8.39225], [-83.35497, 8.39171], [-83.35442, 8.39171], [-83.35442, 8.39117], [-83.35387, 8.39117], [-83.35387, 8.38899], [-83.35442, 8.38899], [-83.35442, 8.3879], [-83.35497, 8.3879], [-83.35497, 8.38681], [-83.35552, 8.38681], [-83.35552, 8.3841], [-83.35607, 8.3841], [-83.35607, 8.38301], [-83.35552, 8.38301], [-83.35552, 8.38138], [-83.35497, 8.38138], [-83.35497, 8.38083], [-83.35387, 8.38083], [-83.35387, 8.38029], [-83.35277, 8.38029], [-83.35277, 8.37974], [-83.34782, 8.37974], [-83.34782, 8.38029], [-83.34617, 8.38029], [-83.34617, 8.38083], [-83.34507, 8.38083], [-83.34507, 8.38138], [-83.34452, 8.38138], [-83.34452, 8.38246], [-83.34507, 8.38246], [-83.34507, 8.38355], [-83.34562, 8.38355], [-83.34562, 8.3841], [-83.34617, 8.3841], [-83.34617, 8.38518], [-83.34672, 8.38518], [-83.34672, 8.38953], [-83.34617, 8.38953], [-83.34617, 8.39062], [-83.34562, 8.39062], [-83.34562, 8.39117], [-83.34507, 8.39117], [-83.34507, 8.39171], [-83.34397, 8.39171], [-83.34397, 8.39225], [-83.34012, 8.39225], [-83.34012, 8.39171], [-83.33793, 8.39171], [-83.33793, 8.39117], [-83.33628, 8.39117], [-83.33628, 8.39062], [-83.33518, 8.39062], [-83.33518, 8.39008], [-83.33463, 8.39008], [-83.33463, 8.38953], [-83.33353, 8.38953], [-83.33353, 8.38899], [-83.33243, 8.38899], [-83.33243, 8.38845], [-83.33188, 8.38845], [-83.33188, 8.3879], [-83.33133, 8.3879], [-83.33133, 8.38736], [-83.33078, 8.38736], [-83.33078, 8.38681], [-83.33023, 8.38681], [-83.33023, 8.38627], [-83.32913, 8.38627], [-83.32913, 8.38573], [-83.32858, 8.38573], [-83.32858, 8.38518], [-83.32748, 8.38518], [-83.32748, 8.38464], [-83.32693, 8.38464], [-83.32693, 8.3841], [-83.32583, 8.3841], [-83.32583, 8.38355], [-83.32528, 8.38355], [-83.32528, 8.38301], [-83.32473, 8.38301], [-83.32473, 8.38246], [-83.32363, 8.38246], [-83.32363, 8.38192], [-83.32253, 8.38192], [-83.32253, 8.38138], [-83.32143, 8.38138], [-83.32143, 8.38083], [-83.31593, 8.38083], [-83.31593, 8.38029], [-83.31428, 8.38029], [-83.31428, 8.37974], [-83.31373, 8.37974], [-83.31373, 8.3792], [-83.31263, 8.3792], [-83.31263, 8.37866], [-83.31208, 8.37866], [-83.31208, 8.37811], [-83.31153, 8.37811], [-83.31153, 8.37757], [-83.31098, 8.37757], [-83.31098, 8.37703], [-83.30988, 8.37703], [-83.30988, 8.37648], [-83.30823, 8.37648], [-83.30823, 8.37594], [-83.30714, 8.37594], [-83.30714, 8.37539], [-83.30604, 8.37539], [-83.30604, 8.37485], [-83.30549, 8.37485], [-83.30549, 8.37431], [-83.30494, 8.37431], [-83.30494, 8.37376], [-83.30439, 8.37376], [-83.30439, 8.37322], [-83.30384, 8.37322], [-83.30384, 8.37268], [-83.30329, 8.37268], [-83.30329, 8.37213], [-83.30274, 8.37213], [-83.30274, 8.37159], [-83.30219, 8.37159], [-83.30219, 8.36996], [-83.30164, 8.36996], [-83.30164, 8.36941], [-83.30109, 8.36941], [-83.30109, 8.36887], [-83.29889, 8.36887], [-83.29889, 8.36832], [-83.29614, 8.36832], [-83.29614, 8.36778], [-83.29064, 8.36778], [-83.29064, 8.36832], [-83.28514, 8.36832], [-83.28514, 8.36887], [-83.28459, 8.36887], [-83.28459, 8.36996], [-83.28404, 8.36996], [-83.28404, 8.37268], [-83.28349, 8.37268], [-83.28349, 8.37431], [-83.28294, 8.37431], [-83.28294, 8.37539], [-83.28239, 8.37539], [-83.28239, 8.37594], [-83.28129, 8.37594], [-83.28129, 8.37648], [-83.28019, 8.37648], [-83.28019, 8.37757], [-83.27964, 8.37757], [-83.27964, 8.37811], [-83.27909, 8.37811], [-83.27909, 8.37974], [-83.27854, 8.37974], [-83.27854, 8.38029], [-83.27799, 8.38029], [-83.27799, 8.38083], [-83.2769, 8.38083], [-83.2769, 8.38192], [-83.27635, 8.38192], [-83.27635, 8.3841], [-83.2758, 8.3841], [-83.2758, 8.39062], [-83.27525, 8.39062], [-83.27525, 8.39606], [-83.2758, 8.39606], [-83.2758, 8.39932], [-83.27525, 8.39932], [-83.27525, 8.40095], [-83.2747, 8.40095], [-83.2747, 8.40585], [-83.27525, 8.40585], [-83.27525, 8.41183], [-83.2758, 8.41183], [-83.2758, 8.41455], [-83.27525, 8.41455], [-83.27525, 8.41673], [-83.2747, 8.41673], [-83.2747, 8.41781], [-83.27415, 8.41781], [-83.27415, 8.41836], [-83.2736, 8.41836], [-83.2736, 8.4189], [-83.2725, 8.4189], [-83.2725, 8.41944], [-83.27195, 8.41944], [-83.27195, 8.41999], [-83.2714, 8.41999], [-83.2714, 8.42108], [-83.27085, 8.42108], [-83.27085, 8.4325], [-83.2714, 8.4325], [-83.2714, 8.43467], [-83.27195, 8.43467], [-83.27195, 8.43576], [-83.2725, 8.43576], [-83.2725, 8.43685], [-83.27305, 8.43685], [-83.27305, 8.43739], [-83.2736, 8.43739], [-83.2736, 8.43848], [-83.27415, 8.43848], [-83.27415, 8.43957], [-83.2747, 8.43957], [-83.2747, 8.44065], [-83.27525, 8.44065], [-83.27525, 8.44229], [-83.2758, 8.44229], [-83.2758, 8.44609], [-83.27525, 8.44609], [-83.27525, 8.44718], [-83.2747, 8.44718], [-83.2747, 8.44827], [-83.27415, 8.44827], [-83.27415, 8.44881], [-83.2736, 8.44881], [-83.2736, 8.44935], [-83.27305, 8.44935], [-83.27305, 8.45262], [-83.2736, 8.45262], [-83.2736, 8.45371], [-83.27415, 8.45371], [-83.27415, 8.45479], [-83.2736, 8.45479], [-83.2736, 8.45588], [-83.27305, 8.45588], [-83.27305, 8.45642], [-83.2725, 8.45642], [-83.2725, 8.45697], [-83.2714, 8.45697], [-83.2714, 8.45751], [-83.27085, 8.45751], [-83.27085, 8.45806], [-83.2703, 8.45806], [-83.2703, 8.46023], [-83.26975, 8.46023], [-83.26975, 8.46785], [-83.2703, 8.46785], [-83.2703, 8.47111], [-83.27085, 8.47111], [-83.27085, 8.4722], [-83.2714, 8.4722], [-83.2714, 8.47328], [-83.27195, 8.47328], [-83.27195, 8.47383], [-83.2725, 8.47383], [-83.2725, 8.47437], [-83.27305, 8.47437], [-83.27305, 8.47491], [-83.2736, 8.47491], [-83.2736, 8.47546], [-83.27415, 8.47546], [-83.27415, 8.47655], [-83.2747, 8.47655], [-83.2747, 8.48035], [-83.27525, 8.48035], [-83.27525, 8.48416], [-83.2758, 8.48416], [-83.2758, 8.48634], [-83.27635, 8.48634], [-83.27635, 8.48688], [-83.2769, 8.48688], [-83.2769, 8.48742], [-83.27744, 8.48742], [-83.27744, 8.48797], [-83.27909, 8.48797], [-83.27909, 8.48851], [-83.28019, 8.48851], [-83.28019, 8.48905], [-83.28074, 8.48905], [-83.28074, 8.4896], [-83.28129, 8.4896], [-83.28129, 8.49069], [-83.28184, 8.49069], [-83.28184, 8.49123], [-83.28239, 8.49123], [-83.28239, 8.49177], [-83.28294, 8.49177], [-83.28294, 8.49286], [-83.28349, 8.49286], [-83.28349, 8.4934], [-83.28404, 8.4934], [-83.28404, 8.49449], [-83.28459, 8.49449], [-83.28459, 8.49612], [-83.28514, 8.49612], [-83.28514, 8.50265], [-83.28074, 8.50265], [-83.28074, 8.50646], [-83.28019, 8.50646], [-83.28019, 8.50754], [-83.27964, 8.50754], [-83.27964, 8.50863], [-83.27909, 8.50863], [-83.27909, 8.50918], [-83.27854, 8.50918], [-83.27854, 8.51026], [-83.27799, 8.51026], [-83.27799, 8.51081], [-83.27744, 8.51081], [-83.27744, 8.51298], [-83.2769, 8.51298], [-83.2769, 8.51516], [-83.27635, 8.51516], [-83.27635, 8.51625], [-83.2758, 8.51625], [-83.2758, 8.51733], [-83.27525, 8.51733], [-83.27525, 8.51951], [-83.2747, 8.51951], [-83.2747, 8.52005], [-83.27525, 8.52005], [-83.27525, 8.52332], [-83.2758, 8.52332], [-83.2758, 8.5244], [-83.27635, 8.5244], [-83.27635, 8.52495], [-83.2769, 8.52495], [-83.2769, 8.52549], [-83.27744, 8.52549], [-83.27744, 8.52603], [-83.27854, 8.52603], [-83.27854, 8.52658], [-83.27909, 8.52658], [-83.27909, 8.52712], [-83.27964, 8.52712], [-83.27964, 8.52821], [-83.28019, 8.52821], [-83.28019, 8.53419], [-83.27964, 8.53419], [-83.27964, 8.53746], [-83.28019, 8.53746], [-83.28019, 8.538], [-83.28074, 8.538], [-83.28074, 8.53854], [-83.28844, 8.53854], [-83.28844, 8.54017], [-83.28789, 8.54017], [-83.28789, 8.54181], [-83.28899, 8.54181], [-83.28899, 8.54126], [-83.28954, 8.54126], [-83.28954, 8.54072], [-83.29119, 8.54072], [-83.29119, 8.54017], [-83.29174, 8.54017], [-83.29174, 8.53963], [-83.29229, 8.53963], [-83.29229, 8.53854], [-83.29889, 8.53854], [-83.29889, 8.53909], [-83.29999, 8.53909], [-83.29999, 8.54072], [-83.30109, 8.54072], [-83.30109, 8.54181], [-83.30164, 8.54181], [-83.30164, 8.54289], [-83.30219, 8.54289], [-83.30219, 8.54344], [-83.30274, 8.54344], [-83.30274, 8.54398], [-83.30384, 8.54398], [-83.30384, 8.54452], [-83.30439, 8.54452], [-83.30439, 8.54507], [-83.30494, 8.54507], [-83.30494, 8.54561], [-83.30549, 8.54561], [-83.30549, 8.5467], [-83.30604, 8.5467], [-83.30604, 8.54779], [-83.30659, 8.54779], [-83.30659, 8.54833], [-83.30714, 8.54833], [-83.30714, 8.54888], [-83.30769, 8.54888], [-83.30769, 8.54942], [-83.30823, 8.54942], [-83.30823, 8.54996], [-83.30878, 8.54996], [-83.30878, 8.55051], [-83.30933, 8.55051], [-83.30933, 8.55159], [-83.30988, 8.55159], [-83.30988, 8.55323], [-83.31043, 8.55323], [-83.31043, 8.55431], [-83.31098, 8.55431], [-83.31098, 8.5554], [-83.31153, 8.5554], [-83.31153, 8.55595], [-83.31263, 8.55595], [-83.31263, 8.55649], [-83.31538, 8.55649], [-83.31538, 8.55703], [-83.31648, 8.55703], [-83.31648, 8.55758], [-83.31758, 8.55758], [-83.31758, 8.55812], [-83.31813, 8.55812], [-83.31813, 8.55866], [-83.31923, 8.55866], [-83.31923, 8.55921], [-83.31978, 8.55921], [-83.31978, 8.55975], [-83.32033, 8.55975], [-83.32033, 8.56084], [-83.32088, 8.56084], [-83.32088, 8.56193], [-83.32143, 8.56193], [-83.32143, 8.56301], [-83.32198, 8.56301], [-83.32198, 8.5641], [-83.32253, 8.5641], [-83.32253, 8.56465], [-83.32308, 8.56465], [-83.32308, 8.56519], [-83.32363, 8.56519], [-83.32363, 8.56573], [-83.32418, 8.56573], [-83.32418, 8.56628], [-83.32473, 8.56628], [-83.32473, 8.56682], [-83.32528, 8.56682], [-83.32528, 8.56737], [-83.32473, 8.56737], [-83.32473, 8.56845], [-83.32528, 8.56845], [-83.32528, 8.56954], [-83.32583, 8.56954], [-83.32583, 8.569], [-83.32858, 8.569], [-83.32858, 8.56954], [-83.33023, 8.56954], [-83.33023, 8.57008], [-83.33243, 8.57008], [-83.33243, 8.57063], [-83.33298, 8.57063], [-83.33298, 8.57117], [-83.33408, 8.57117], [-83.33408, 8.57172], [-83.33463, 8.57172], [-83.33463, 8.57226], [-83.33573, 8.57226], [-83.33573, 8.5728], [-83.33628, 8.5728], [-83.33628, 8.57335], [-83.33683, 8.57335], [-83.33683, 8.57389], [-83.33738, 8.57389], [-83.33738, 8.57498], [-83.33793, 8.57498], [-83.33793, 8.57552], [-83.33847, 8.57552], [-83.33847, 8.57607], [-83.33902, 8.57607], [-83.33902, 8.57661], [-83.34012, 8.57661], [-83.34012, 8.57715], [-83.34122, 8.57715], [-83.34122, 8.5777], [-83.34617, 8.5777], [-83.34617, 8.57824], [-83.34782, 8.57824], [-83.34782, 8.57879], [-83.34837, 8.57879], [-83.34837, 8.57933], [-83.34892, 8.57933], [-83.34892, 8.57987], [-83.34947, 8.57987], [-83.34947, 8.58042], [-83.35112, 8.58042], [-83.35112, 8.57987], [-83.35167, 8.57987], [-83.35167, 8.57933], [-83.35222, 8.57933], [-83.35222, 8.57879], [-83.35277, 8.57879], [-83.35277, 8.57824], [-83.35442, 8.57824], [-83.35442, 8.5777], [-83.36981, 8.5777], [-83.36981, 8.57824], [-83.37091, 8.57824], [-83.37091, 8.57879], [-83.37146, 8.57879], [-83.37146, 8.57987], [-83.37201, 8.57987], [-83.37201, 8.58096], [-83.37256, 8.58096], [-83.37256, 8.58151], [-83.37311, 8.58151], [-83.37311, 8.58205], [-83.37421, 8.58205], [-83.37421, 8.58259], [-83.37476, 8.58259], [-83.37476, 8.58314], [-83.37531, 8.58314], [-83.37531, 8.58368], [-83.37586, 8.58368], [-83.37586, 8.58422], [-83.37641, 8.58422], [-83.37641, 8.58531], [-83.37696, 8.58531], [-83.37696, 8.58586], [-83.37861, 8.58586], [-83.37861, 8.5864], [-83.37971, 8.5864], [-83.37971, 8.58586], [-83.38246, 8.58586], [-83.38246, 8.5864], [-83.38356, 8.5864], [-83.38356, 8.58694], [-83.38411, 8.58694], [-83.38411, 8.58749], [-83.38466, 8.58749], [-83.38466, 8.58857], [-83.38521, 8.58857], [-83.38521, 8.58966], [-83.38576, 8.58966], [-83.38576, 8.59021], [-83.39016, 8.59021], [-83.39016, 8.58966], [-83.39071, 8.58966], [-83.39071, 8.59021], [-83.39346, 8.59021], [-83.39346, 8.59075], [-83.39456, 8.59075], [-83.39456, 8.59129], [-83.39566, 8.59129], [-83.39566, 8.59184], [-83.39621, 8.59184], [-83.39621, 8.59238], [-83.39676, 8.59238], [-83.39676, 8.59293], [-83.39731, 8.59293], [-83.39731, 8.59347], [-83.39786, 8.59347], [-83.39786, 8.59401], [-83.39841, 8.59401], [-83.39841, 8.59456], [-83.39895, 8.59456], [-83.39895, 8.5951], [-83.3995, 8.5951], [-83.3995, 8.59564], [-83.4006, 8.59564], [-83.4006, 8.59619], [-83.40115, 8.59619], [-83.40115, 8.59673], [-83.4017, 8.59673], [-83.4017, 8.59782], [-83.40225, 8.59782], [-83.40225, 8.60054], [-83.4028, 8.60054], [-83.4028, 8.60326], [-83.40335, 8.60326], [-83.40335, 8.6038], [-83.4039, 8.6038], [-83.4039, 8.60435], [-83.40445, 8.60435], [-83.40445, 8.60489], [-83.405, 8.60489], [-83.405, 8.60543], [-83.4061, 8.60543], [-83.4061, 8.60598], [-83.40665, 8.60598], [-83.40665, 8.60652], [-83.4072, 8.60652], [-83.4072, 8.60706], [-83.40775, 8.60706], [-83.40775, 8.60761], [-83.4083, 8.60761], [-83.4083, 8.60815], [-83.4094, 8.60815], [-83.4094, 8.6087], [-83.4105, 8.6087], [-83.4105, 8.60924], [-83.41105, 8.60924], [-83.41105, 8.61033], [-83.4116, 8.61033], [-83.4116, 8.61087], [-83.41215, 8.61087], [-83.41215, 8.61142], [-83.4127, 8.61142], [-83.4127, 8.61196], [-83.4138, 8.61196], [-83.4138, 8.6125], [-83.41435, 8.6125], [-83.41435, 8.61305], [-83.4149, 8.61305], [-83.4149, 8.61359], [-83.41545, 8.61359], [-83.41545, 8.61468], [-83.416, 8.61468], [-83.416, 8.61522], [-83.41655, 8.61522], [-83.41655, 8.61577], [-83.4171, 8.61577], [-83.4171, 8.61631], [-83.41765, 8.61631], [-83.41765, 8.61685], [-83.4193, 8.61685], [-83.4193, 8.6174], [-83.4204, 8.6174], [-83.4204, 8.61794], [-83.4215, 8.61794], [-83.4215, 8.61849], [-83.4226, 8.61849], [-83.4226, 8.61903], [-83.42425, 8.61903], [-83.42425, 8.61957], [-83.42535, 8.61957], [-83.42535, 8.62066], [-83.4259, 8.62066], [-83.4259, 8.62229], [-83.42645, 8.62229], [-83.42645, 8.62447], [-83.427, 8.62447], [-83.427, 8.62664], [-83.42755, 8.62664], [-83.42755, 8.62773], [-83.4281, 8.62773], [-83.4281, 8.62882], [-83.42865, 8.62882], [-83.42865, 8.62936], [-83.42919, 8.62936], [-83.42919, 8.63045], [-83.42974, 8.63045], [-83.42974, 8.63099], [-83.43029, 8.63099], [-83.43029, 8.63154], [-83.43084, 8.63154], [-83.43084, 8.63262], [-83.43139, 8.63262], [-83.43139, 8.63317], [-83.43194, 8.63317], [-83.43194, 8.63426], [-83.43249, 8.63426], [-83.43249, 8.6348], [-83.43304, 8.6348], [-83.43304, 8.63643], [-83.43359, 8.63643], [-83.43359, 8.63969], [-83.43304, 8.63969], [-83.43304, 8.64133], [-83.43249, 8.64133], [-83.43249, 8.64296], [-83.43194, 8.64296], [-83.43194, 8.64405], [-83.43139, 8.64405], [-83.43139, 8.65166], [-83.43084, 8.65166], [-83.43084, 8.65492], [-83.43139, 8.65492], [-83.43139, 8.65547], [-83.43194, 8.65547], [-83.43194, 8.65601], [-83.43249, 8.65601], [-83.43249, 8.65655], [-83.43304, 8.65655], [-83.43304, 8.6571], [-83.43359, 8.6571], [-83.43359, 8.65818], [-83.43414, 8.65818], [-83.43414, 8.65982], [-83.43469, 8.65982], [-83.43469, 8.66362], [-83.43524, 8.66362], [-83.43524, 8.66417], [-83.43634, 8.66417], [-83.43634, 8.66471], [-83.43744, 8.66471], [-83.43744, 8.66525], [-83.43799, 8.66525], [-83.43799, 8.66634], [-83.43854, 8.66634], [-83.43854, 8.66906], [-83.43799, 8.66906], [-83.43799, 8.67015], [-83.43744, 8.67015], [-83.43744, 8.67124], [-83.43689, 8.67124], [-83.43689, 8.67232], [-83.43744, 8.67232], [-83.43744, 8.67287], [-83.43854, 8.67287], [-83.43854, 8.67341], [-83.43909, 8.67341], [-83.43909, 8.67396], [-83.43964, 8.67396], [-83.43964, 8.6745], [-83.44019, 8.6745], [-83.44019, 8.67504], [-83.44074, 8.67504], [-83.44074, 8.67559], [-83.44129, 8.67559], [-83.44129, 8.67613], [-83.44184, 8.67613], [-83.44184, 8.67667], [-83.44239, 8.67667], [-83.44239, 8.67722], [-83.44899, 8.67722], [-83.44899, 8.67776], [-83.45064, 8.67776], [-83.45064, 8.67831], [-83.45119, 8.67831], [-83.45119, 8.67885], [-83.45174, 8.67885], [-83.45174, 8.68048], [-83.45229, 8.68048], [-83.45229, 8.68211], [-83.45284, 8.68211], [-83.45284, 8.68429], [-83.45339, 8.68429], [-83.45339, 8.68538], [-83.45394, 8.68538], [-83.45394, 8.68592], [-83.45449, 8.68592], [-83.45449, 8.68646], [-83.45559, 8.68646], [-83.45559, 8.68701], [-83.45614, 8.68701], [-83.45614, 8.68755], [-83.45724, 8.68755], [-83.45724, 8.6881], [-83.45779, 8.6881], [-83.45779, 8.68864], [-83.45889, 8.68864], [-83.45889, 8.68918], [-83.45943, 8.68918], [-83.45943, 8.68973], [-83.45998, 8.68973], [-83.45998, 8.69027], [-83.46053, 8.69027], [-83.46053, 8.69081], [-83.46108, 8.69081], [-83.46108, 8.69136], [-83.46163, 8.69136], [-83.46163, 8.69245], [-83.46218, 8.69245], [-83.46218, 8.69408], [-83.46273, 8.69408], [-83.46273, 8.69571], [-83.46328, 8.69571], [-83.46328, 8.69734], [-83.46383, 8.69734], [-83.46383, 8.69897], [-83.46438, 8.69897], [-83.46438, 8.70169], [-83.46493, 8.70169], [-83.46493, 8.70223], [-83.46548, 8.70223], [-83.46548, 8.70278], [-83.46768, 8.70278], [-83.46768, 8.70223], [-83.47813, 8.70223], [-83.47813, 8.70278], [-83.47868, 8.70278], [-83.47868, 8.70332], [-83.47978, 8.70332], [-83.47978, 8.70387], [-83.48033, 8.70387], [-83.48033, 8.70495], [-83.48088, 8.70495], [-83.48088, 8.70822], [-83.48033, 8.70822], [-83.48033, 8.70985], [-83.47978, 8.70985], [-83.47978, 8.71094], [-83.47923, 8.71094], [-83.47923, 8.71202], [-83.47868, 8.71202], [-83.47868, 8.71366], [-83.47813, 8.71366], [-83.47813, 8.71474], [-83.47758, 8.71474], [-83.47758, 8.71583], [-83.47648, 8.71583], [-83.47648, 8.71637], [-83.47538, 8.71637], [-83.47538, 8.71692], [-83.47208, 8.71692], [-83.47208, 8.71637], [-83.47098, 8.71637], [-83.47098, 8.71583], [-83.46988, 8.71583], [-83.46988, 8.71529], [-83.46878, 8.71529], [-83.46878, 8.71474], [-83.46548, 8.71474], [-83.46548, 8.7142], [-83.46438, 8.7142], [-83.46438, 8.71474], [-83.46218, 8.71474], [-83.46218, 8.71529], [-83.46108, 8.71529], [-83.46108, 8.71583], [-83.45174, 8.71583], [-83.45174, 8.71529], [-83.45064, 8.71529], [-83.45064, 8.71474], [-83.45009, 8.71474], [-83.45009, 8.71366], [-83.44954, 8.71366], [-83.44954, 8.71257], [-83.44844, 8.71257], [-83.44844, 8.71202], [-83.44789, 8.71202], [-83.44789, 8.71148], [-83.44514, 8.71148], [-83.44514, 8.71094], [-83.44184, 8.71094], [-83.44184, 8.71039], [-83.44019, 8.71039], [-83.44019, 8.70985], [-83.43909, 8.70985], [-83.43909, 8.7093], [-83.43799, 8.7093], [-83.43799, 8.70822], [-83.43744, 8.70822], [-83.43744, 8.70767], [-83.43689, 8.70767], [-83.43689, 8.70713], [-83.43579, 8.70713], [-83.43579, 8.70659], [-83.43414, 8.70659], [-83.43414, 8.70604], [-83.42974, 8.70604], [-83.42974, 8.70659], [-83.427, 8.70659], [-83.427, 8.70713], [-83.4259, 8.70713], [-83.4259, 8.70822], [-83.42535, 8.70822], [-83.42535, 8.70876], [-83.4248, 8.70876], [-83.4248, 8.70985], [-83.42425, 8.70985], [-83.42425, 8.71039], [-83.4237, 8.71039], [-83.4237, 8.71094], [-83.4226, 8.71094], [-83.4226, 8.71148], [-83.4215, 8.71148], [-83.4215, 8.71202], [-83.4204, 8.71202], [-83.4204, 8.71257], [-83.41985, 8.71257], [-83.41985, 8.71311], [-83.41875, 8.71311], [-83.41875, 8.71366], [-83.41765, 8.71366], [-83.41765, 8.7142], [-83.416, 8.7142], [-83.416, 8.71474], [-83.4149, 8.71474], [-83.4149, 8.71529], [-83.4138, 8.71529], [-83.4138, 8.71583], [-83.41325, 8.71583], [-83.41325, 8.71637], [-83.4127, 8.71637], [-83.4127, 8.71692], [-83.41215, 8.71692], [-83.41215, 8.71801], [-83.4116, 8.71801], [-83.4116, 8.71909], [-83.41105, 8.71909], [-83.41105, 8.72018], [-83.40995, 8.72018], [-83.40995, 8.72073], [-83.4094, 8.72073], [-83.4094, 8.72127], [-83.40885, 8.72127], [-83.40885, 8.72181], [-83.4083, 8.72181], [-83.4083, 8.72236], [-83.40775, 8.72236], [-83.40775, 8.7229], [-83.4072, 8.7229], [-83.4072, 8.72344], [-83.40555, 8.72344], [-83.40555, 8.72399], [-83.4028, 8.72399], [-83.4028, 8.72453], [-83.40115, 8.72453], [-83.40115, 8.72508], [-83.3995, 8.72508], [-83.3995, 8.72562], [-83.39841, 8.72562], [-83.39841, 8.72616], [-83.39676, 8.72616], [-83.39676, 8.72671], [-83.39016, 8.72671], [-83.39016, 8.72616], [-83.38851, 8.72616], [-83.38851, 8.72562], [-83.38741, 8.72562], [-83.38741, 8.72508], [-83.38631, 8.72508], [-83.38631, 8.72453], [-83.38521, 8.72453], [-83.38521, 8.72399], [-83.38411, 8.72399], [-83.38411, 8.72344], [-83.38356, 8.72344], [-83.38356, 8.72236], [-83.38301, 8.72236], [-83.38301, 8.72181], [-83.38246, 8.72181], [-83.38246, 8.72073], [-83.38191, 8.72073], [-83.38191, 8.71909], [-83.38246, 8.71909], [-83.38246, 8.71583], [-83.38136, 8.71583], [-83.38136, 8.71529], [-83.38026, 8.71529], [-83.38026, 8.71583], [-83.37916, 8.71583], [-83.37916, 8.71637], [-83.37861, 8.71637], [-83.37861, 8.71692], [-83.37806, 8.71692], [-83.37806, 8.71909], [-83.37751, 8.71909], [-83.37751, 8.71964], [-83.37696, 8.71964], [-83.37696, 8.72018], [-83.37586, 8.72018], [-83.37586, 8.72073], [-83.37531, 8.72073], [-83.37531, 8.72127], [-83.37421, 8.72127], [-83.37421, 8.72181], [-83.37201, 8.72181], [-83.37201, 8.72236], [-83.36157, 8.72236], [-83.36157, 8.72181], [-83.35882, 8.72181], [-83.35882, 8.72127], [-83.35717, 8.72127], [-83.35717, 8.72073], [-83.35607, 8.72073], [-83.35607, 8.72018], [-83.35552, 8.72018], [-83.35552, 8.71964], [-83.35442, 8.71964], [-83.35442, 8.71746], [-83.35387, 8.71746], [-83.35387, 8.71583], [-83.35332, 8.71583], [-83.35332, 8.71474], [-83.35277, 8.71474], [-83.35277, 8.71366], [-83.35222, 8.71366], [-83.35222, 8.71311], [-83.35112, 8.71311], [-83.35112, 8.71257], [-83.34892, 8.71257], [-83.34892, 8.71311], [-83.34837, 8.71311], [-83.34837, 8.71366], [-83.34782, 8.71366], [-83.34782, 8.71529], [-83.34727, 8.71529], [-83.34727, 8.71692], [-83.34782, 8.71692], [-83.34782, 8.71909], [-83.34837, 8.71909], [-83.34837, 8.72127], [-83.34782, 8.72127], [-83.34782, 8.72236], [-83.34727, 8.72236], [-83.34727, 8.7229], [-83.34672, 8.7229], [-83.34672, 8.72344], [-83.34507, 8.72344], [-83.34507, 8.72399], [-83.34232, 8.72399], [-83.34232, 8.72344], [-83.34012, 8.72344], [-83.34012, 8.7229], [-83.33902, 8.7229], [-83.33902, 8.72236], [-83.33793, 8.72236], [-83.33793, 8.72181], [-83.33683, 8.72181], [-83.33683, 8.72073], [-83.33628, 8.72073], [-83.33628, 8.72018], [-83.33573, 8.72018], [-83.33573, 8.71964], [-83.33518, 8.71964], [-83.33518, 8.71746], [-83.33573, 8.71746], [-83.33573, 8.71692], [-83.33628, 8.71692], [-83.33628, 8.71529], [-83.33573, 8.71529], [-83.33573, 8.71474], [-83.33683, 8.71474], [-83.33683, 8.7142], [-83.33793, 8.7142], [-83.33793, 8.71366], [-83.33957, 8.71366], [-83.33957, 8.71311], [-83.34067, 8.71311], [-83.34067, 8.71257], [-83.34177, 8.71257], [-83.34177, 8.71202], [-83.34287, 8.71202], [-83.34287, 8.71148], [-83.34342, 8.71148], [-83.34342, 8.70985], [-83.34287, 8.70985], [-83.34287, 8.70876], [-83.34232, 8.70876], [-83.34232, 8.70767], [-83.34177, 8.70767], [-83.34177, 8.70659], [-83.34232, 8.70659], [-83.34232, 8.70495], [-83.34287, 8.70495], [-83.34287, 8.70332], [-83.34342, 8.70332], [-83.34342, 8.70115], [-83.34397, 8.70115], [-83.34397, 8.69897], [-83.34452, 8.69897], [-83.34452, 8.69788], [-83.34397, 8.69788], [-83.34397, 8.69517], [-83.34342, 8.69517], [-83.34342, 8.6919], [-83.34287, 8.6919], [-83.34287, 8.68918], [-83.34232, 8.68918], [-83.34232, 8.68755], [-83.34177, 8.68755], [-83.34177, 8.68701], [-83.34122, 8.68701], [-83.34122, 8.68646], [-83.34067, 8.68646], [-83.34067, 8.68592], [-83.33902, 8.68592], [-83.33902, 8.68538], [-83.33683, 8.68538], [-83.33683, 8.68483], [-83.33408, 8.68483], [-83.33408, 8.68429], [-83.33353, 8.68429], [-83.33353, 8.68374], [-83.33298, 8.68374], [-83.33298, 8.68103], [-83.33243, 8.68103], [-83.33243, 8.67939], [-83.33188, 8.67939], [-83.33188, 8.67776], [-83.33133, 8.67776], [-83.33133, 8.67667], [-83.33078, 8.67667], [-83.33078, 8.67613], [-83.33023, 8.67613], [-83.33023, 8.67504], [-83.32968, 8.67504], [-83.32968, 8.6745], [-83.32913, 8.6745], [-83.32913, 8.67396], [-83.32858, 8.67396], [-83.32858, 8.67341], [-83.32803, 8.67341], [-83.32803, 8.67287], [-83.32748, 8.67287], [-83.32748, 8.67232], [-83.32638, 8.67232], [-83.32638, 8.67178], [-83.32583, 8.67178], [-83.32583, 8.67124], [-83.32528, 8.67124], [-83.32528, 8.67069], [-83.32473, 8.67069], [-83.32473, 8.67015], [-83.32363, 8.67015], [-83.32363, 8.66961], [-83.32308, 8.66961], [-83.32308, 8.66906], [-83.32198, 8.66906], [-83.32198, 8.66852], [-83.31978, 8.66852], [-83.31978, 8.66797], [-83.31043, 8.66797], [-83.31043, 8.66743], [-83.30933, 8.66743], [-83.30933, 8.66689], [-83.30878, 8.66689], [-83.30878, 8.66634], [-83.30823, 8.66634], [-83.30823, 8.66471], [-83.30769, 8.66471], [-83.30769, 8.66417], [-83.30714, 8.66417], [-83.30714, 8.66308], [-83.30659, 8.66308], [-83.30659, 8.66254], [-83.30604, 8.66254], [-83.30604, 8.66145], [-83.30549, 8.66145], [-83.30549, 8.6609], [-83.30494, 8.6609], [-83.30494, 8.66036], [-83.30439, 8.66036], [-83.30439, 8.65982], [-83.30384, 8.65982], [-83.30384, 8.65927], [-83.30329, 8.65927], [-83.30329, 8.65873], [-83.30219, 8.65873], [-83.30219, 8.65818], [-83.30109, 8.65818], [-83.30109, 8.65764], [-83.30054, 8.65764], [-83.30054, 8.6571], [-83.29999, 8.6571], [-83.29999, 8.65655], [-83.29944, 8.65655], [-83.29944, 8.65547], [-83.29889, 8.65547], [-83.29889, 8.65438], [-83.29834, 8.65438], [-83.29834, 8.65329], [-83.29779, 8.65329], [-83.29779, 8.6522], [-83.29724, 8.6522], [-83.29724, 8.65166], [-83.29339, 8.65166], [-83.29339, 8.6522], [-83.29174, 8.6522], [-83.29174, 8.65275], [-83.29064, 8.65275], [-83.29064, 8.65329], [-83.28624, 8.65329], [-83.28624, 8.65275], [-83.28459, 8.65275], [-83.28459, 8.6522], [-83.28404, 8.6522], [-83.28404, 8.65166], [-83.28349, 8.65166], [-83.28349, 8.65057], [-83.28294, 8.65057], [-83.28294, 8.64948], [-83.28239, 8.64948], [-83.28239, 8.6484], [-83.28184, 8.6484], [-83.28184, 8.64731], [-83.28129, 8.64731], [-83.28129, 8.64676], [-83.28074, 8.64676], [-83.28074, 8.64622], [-83.28019, 8.64622], [-83.28019, 8.64568], [-83.27854, 8.64568], [-83.27854, 8.64513], [-83.2736, 8.64513], [-83.2736, 8.64568], [-83.2725, 8.64568], [-83.2725, 8.64622], [-83.2714, 8.64622], [-83.2714, 8.64676], [-83.27085, 8.64676], [-83.27085, 8.64731], [-83.2703, 8.64731], [-83.2703, 8.64785], [-83.26975, 8.64785], [-83.26975, 8.6484], [-83.2692, 8.6484], [-83.2692, 8.64894], [-83.26865, 8.64894], [-83.26865, 8.64948], [-83.26755, 8.64948], [-83.26755, 8.65003], [-83.26645, 8.65003], [-83.26645, 8.65057], [-83.2648, 8.65057], [-83.2648, 8.65112], [-83.2637, 8.65112], [-83.2637, 8.65166], [-83.26205, 8.65166], [-83.26205, 8.6522], [-83.26095, 8.6522], [-83.26095, 8.65275], [-83.2593, 8.65275], [-83.2593, 8.65329], [-83.25765, 8.65329], [-83.25765, 8.65275], [-83.256, 8.65275], [-83.256, 8.6522], [-83.25545, 8.6522], [-83.25545, 8.65166], [-83.2549, 8.65166], [-83.2549, 8.65112], [-83.25435, 8.65112], [-83.25435, 8.65003], [-83.2538, 8.65003], [-83.2538, 8.6484], [-83.25325, 8.6484], [-83.25325, 8.64622], [-83.2527, 8.64622], [-83.2527, 8.64513], [-83.25215, 8.64513], [-83.25215, 8.6435], [-83.2516, 8.6435], [-83.2516, 8.64241], [-83.25105, 8.64241], [-83.25105, 8.64078], [-83.2505, 8.64078], [-83.2505, 8.63969], [-83.24995, 8.63969], [-83.24995, 8.63643], [-83.2494, 8.63643], [-83.2494, 8.63589], [-83.24995, 8.63589], [-83.24995, 8.63099], [-83.2494, 8.63099], [-83.2494, 8.62827], [-83.24885, 8.62827], [-83.24885, 8.62664], [-83.2483, 8.62664], [-83.2483, 8.62556], [-83.24775, 8.62556], [-83.24775, 8.62447], [-83.2472, 8.62447], [-83.2472, 8.61957], [-83.24775, 8.61957], [-83.24775, 8.61849], [-83.2483, 8.61849], [-83.2483, 8.61685], [-83.24885, 8.61685], [-83.24885, 8.61468], [-83.2483, 8.61468], [-83.2483, 8.61305], [-83.24775, 8.61305], [-83.24775, 8.6125], [-83.2472, 8.6125], [-83.2472, 8.61142], [-83.24666, 8.61142], [-83.24666, 8.61087], [-83.24611, 8.61087], [-83.24611, 8.61033], [-83.24556, 8.61033], [-83.24556, 8.60978], [-83.24446, 8.60978], [-83.24446, 8.60924], [-83.24171, 8.60924], [-83.24171, 8.6087], [-83.23896, 8.6087], [-83.23896, 8.60924], [-83.23071, 8.60924], [-83.23071, 8.6087], [-83.22851, 8.6087], [-83.22851, 8.60815], [-83.22301, 8.60815], [-83.22301, 8.6087], [-83.22246, 8.6087], [-83.22246, 8.60924], [-83.22136, 8.60924], [-83.22136, 8.60978], [-83.22081, 8.60978], [-83.22081, 8.61033], [-83.22026, 8.61033], [-83.22026, 8.61087], [-83.21971, 8.61087], [-83.21971, 8.61142], [-83.21916, 8.61142], [-83.21916, 8.6125], [-83.21861, 8.6125], [-83.21861, 8.61305], [-83.21806, 8.61305], [-83.21806, 8.61413], [-83.21751, 8.61413], [-83.21751, 8.61685], [-83.21806, 8.61685], [-83.21806, 8.61794], [-83.21916, 8.61794], [-83.21916, 8.61849], [-83.22631, 8.61849], [-83.22631, 8.61903], [-83.22796, 8.61903], [-83.22796, 8.61957], [-83.22906, 8.61957], [-83.22906, 8.62012], [-83.22961, 8.62012], [-83.22961, 8.62556], [-83.22906, 8.62556], [-83.22906, 8.62773], [-83.22851, 8.62773], [-83.22851, 8.62936], [-83.22796, 8.62936], [-83.22796, 8.63045], [-83.22741, 8.63045], [-83.22741, 8.63099], [-83.22686, 8.63099], [-83.22686, 8.63154], [-83.22631, 8.63154], [-83.22631, 8.63208], [-83.22246, 8.63208], [-83.22246, 8.63154], [-83.22136, 8.63154], [-83.22136, 8.63099], [-83.22081, 8.63099], [-83.22081, 8.62991], [-83.22026, 8.62991], [-83.22026, 8.62827], [-83.21971, 8.62827], [-83.21971, 8.62719], [-83.21916, 8.62719], [-83.21916, 8.62664], [-83.21861, 8.62664], [-83.21861, 8.6261], [-83.21751, 8.6261], [-83.21751, 8.62556], [-83.21477, 8.62556], [-83.21477, 8.62501], [-83.20817, 8.62501], [-83.20817, 8.62556], [-83.20377, 8.62556], [-83.20377, 8.62501], [-83.20047, 8.62501], [-83.20047, 8.62447], [-83.19882, 8.62447], [-83.19882, 8.62392], [-83.19772, 8.62392], [-83.19772, 8.62338], [-83.19662, 8.62338], [-83.19662, 8.62284], [-83.19552, 8.62284], [-83.19552, 8.62229], [-83.19497, 8.62229], [-83.19497, 8.62175], [-83.19387, 8.62175], [-83.19387, 8.6212], [-83.19277, 8.6212], [-83.19277, 8.62066], [-83.19167, 8.62066], [-83.19167, 8.62012], [-83.19057, 8.62012], [-83.19057, 8.61957], [-83.18947, 8.61957], [-83.18947, 8.61903], [-83.18837, 8.61903], [-83.18837, 8.61849], [-83.18563, 8.61849], [-83.18563, 8.61903], [-83.17848, 8.61903], [-83.17848, 8.6174], [-83.17903, 8.6174], [-83.17903, 8.61685], [-83.17958, 8.61685], [-83.17958, 8.61468], [-83.18013, 8.61468], [-83.18013, 8.61359], [-83.18068, 8.61359], [-83.18068, 8.60978], [-83.18013, 8.60978], [-83.18013, 8.60706], [-83.18068, 8.60706], [-83.18068, 8.60652], [-83.18123, 8.60652], [-83.18123, 8.60598], [-83.18178, 8.60598], [-83.18178, 8.60543], [-83.18233, 8.60543], [-83.18233, 8.60489], [-83.18288, 8.60489], [-83.18288, 8.6038], [-83.18343, 8.6038], [-83.18343, 8.60054], [-83.18288, 8.60054], [-83.18288, 8.6], [-83.18233, 8.6], [-83.18233, 8.59945], [-83.18178, 8.59945], [-83.18178, 8.59836], [-83.18123, 8.59836], [-83.18123, 8.59564], [-83.18178, 8.59564], [-83.18178, 8.59129], [-83.18123, 8.59129], [-83.18123, 8.58966], [-83.18068, 8.58966], [-83.18068, 8.58803], [-83.18013, 8.58803], [-83.18013, 8.58694], [-83.17958, 8.58694], [-83.17958, 8.58422], [-83.17903, 8.58422], [-83.17903, 8.58096], [-83.17848, 8.58096], [-83.17848, 8.58042], [-83.17793, 8.58042], [-83.17793, 8.57987], [-83.17738, 8.57987], [-83.17738, 8.57933], [-83.17683, 8.57933], [-83.17683, 8.57879], [-83.17573, 8.57879], [-83.17573, 8.57824], [-83.17463, 8.57824], [-83.17463, 8.5777], [-83.17353, 8.5777], [-83.17353, 8.57715], [-83.17188, 8.57715], [-83.17188, 8.57661], [-83.17023, 8.57661], [-83.17023, 8.57607], [-83.16858, 8.57607], [-83.16858, 8.57552], [-83.16748, 8.57552], [-83.16748, 8.57498], [-83.16693, 8.57498], [-83.16693, 8.57389], [-83.16638, 8.57389], [-83.16638, 8.57063], [-83.16693, 8.57063], [-83.16693, 8.56954], [-83.16748, 8.56954], [-83.16748, 8.569], [-83.16803, 8.569], [-83.16803, 8.56845], [-83.16858, 8.56845], [-83.16858, 8.56791], [-83.16968, 8.56791], [-83.16968, 8.56737], [-83.17023, 8.56737], [-83.17023, 8.56682], [-83.17078, 8.56682], [-83.17078, 8.56519], [-83.17023, 8.56519], [-83.17023, 8.56356], [-83.16968, 8.56356], [-83.16968, 8.56301], [-83.16913, 8.56301], [-83.16913, 8.56247], [-83.16858, 8.56247], [-83.16858, 8.56193], [-83.16693, 8.56193], [-83.16693, 8.56138], [-83.16583, 8.56138], [-83.16583, 8.56084], [-83.16473, 8.56084], [-83.16473, 8.5603], [-83.16418, 8.5603], [-83.16418, 8.56084], [-83.16198, 8.56084], [-83.16198, 8.5603], [-83.16143, 8.5603], [-83.16143, 8.55975], [-83.16088, 8.55975], [-83.16088, 8.55812], [-83.16033, 8.55812], [-83.16033, 8.55649], [-83.15978, 8.55649], [-83.15978, 8.55595], [-83.15923, 8.55595], [-83.15923, 8.5554], [-83.15813, 8.5554], [-83.15813, 8.55431], [-83.15758, 8.55431], [-83.15758, 8.55159], [-83.15703, 8.55159], [-83.15703, 8.55105], [-83.15648, 8.55105], [-83.15648, 8.55051], [-83.15594, 8.55051], [-83.15594, 8.54996], [-83.15484, 8.54996], [-83.15484, 8.54942], [-83.15374, 8.54942], [-83.15374, 8.54888], [-83.15319, 8.54888], [-83.15319, 8.54833], [-83.15264, 8.54833], [-83.15264, 8.54072], [-83.15209, 8.54072], [-83.15209, 8.53963], [-83.15154, 8.53963], [-83.15154, 8.53854], [-83.15099, 8.53854], [-83.15099, 8.53691], [-83.15044, 8.53691], [-83.15044, 8.53582], [-83.14989, 8.53582], [-83.14989, 8.53528], [-83.14879, 8.53528], [-83.14879, 8.53474], [-83.14824, 8.53474], [-83.14824, 8.53419], [-83.14769, 8.53419], [-83.14769, 8.53365], [-83.14714, 8.53365], [-83.14714, 8.5331], [-83.14659, 8.5331], [-83.14659, 8.53256], [-83.14604, 8.53256], [-83.14604, 8.53202], [-83.14549, 8.53202], [-83.14549, 8.53093], [-83.14494, 8.53093], [-83.14494, 8.52984], [-83.14439, 8.52984], [-83.14439, 8.52658], [-83.14494, 8.52658], [-83.14494, 8.51625], [-83.14439, 8.51625], [-83.14439, 8.51516], [-83.14384, 8.51516], [-83.14384, 8.51461], [-83.14329, 8.51461], [-83.14329, 8.51407], [-83.14274, 8.51407], [-83.14274, 8.51353], [-83.14219, 8.51353], [-83.14219, 8.51298], [-83.14164, 8.51298], [-83.14164, 8.51244], [-83.14109, 8.51244], [-83.14109, 8.51135], [-83.14054, 8.51135], [-83.14054, 8.51081], [-83.13999, 8.51081], [-83.13999, 8.51026], [-83.13889, 8.51026], [-83.13889, 8.50972], [-83.13669, 8.50972], [-83.13669, 8.50918], [-83.13559, 8.50918], [-83.13559, 8.50863], [-83.13504, 8.50863], [-83.13504, 8.50809], [-83.13449, 8.50809], [-83.13449, 8.50754], [-83.13394, 8.50754], [-83.13394, 8.507], [-83.13339, 8.507], [-83.13339, 8.50646], [-83.13229, 8.50646], [-83.13229, 8.50591], [-83.13174, 8.50591], [-83.13174, 8.50537], [-83.13119, 8.50537], [-83.13119, 8.50483], [-83.13064, 8.50483], [-83.13064, 8.50428], [-83.13009, 8.50428], [-83.13009, 8.50374], [-83.12954, 8.50374], [-83.12954, 8.50319], [-83.12899, 8.50319], [-83.12899, 8.50211], [-83.12844, 8.50211], [-83.12844, 8.50156], [-83.12789, 8.50156], [-83.12789, 8.50102], [-83.12679, 8.50102], [-83.12679, 8.50047], [-83.1257, 8.50047], [-83.1257, 8.49993], [-83.12515, 8.49993], [-83.12515, 8.49939], [-83.1246, 8.49939], [-83.1246, 8.4983], [-83.12405, 8.4983], [-83.12405, 8.49721], [-83.1235, 8.49721], [-83.1235, 8.49612], [-83.12295, 8.49612], [-83.12295, 8.49558], [-83.1224, 8.49558], [-83.1224, 8.49504], [-83.12185, 8.49504], [-83.12185, 8.49449], [-83.1213, 8.49449], [-83.1213, 8.49286], [-83.12185, 8.49286], [-83.12185, 8.49177], [-83.12295, 8.49177], [-83.12295, 8.49123], [-83.1235, 8.49123], [-83.1235, 8.49069], [-83.12405, 8.49069], [-83.12405, 8.49014], [-83.1246, 8.49014], [-83.1246, 8.48851], [-83.12405, 8.48851], [-83.12405, 8.48742], [-83.1235, 8.48742], [-83.1235, 8.48688], [-83.12295, 8.48688], [-83.12295, 8.48579], [-83.1224, 8.48579], [-83.1224, 8.48525], [-83.12185, 8.48525], [-83.12185, 8.4847], [-83.1202, 8.4847], [-83.1202, 8.48525], [-83.118, 8.48525], [-83.118, 8.4847], [-83.11745, 8.4847], [-83.11745, 8.48362], [-83.1169, 8.48362], [-83.1169, 8.48307], [-83.11635, 8.48307], [-83.11635, 8.48198], [-83.1158, 8.48198], [-83.1158, 8.4809], [-83.11525, 8.4809], [-83.11525, 8.47927], [-83.1147, 8.47927], [-83.1147, 8.47818], [-83.1136, 8.47818], [-83.1136, 8.47763], [-83.1114, 8.47763], [-83.1114, 8.47818], [-83.10975, 8.47818], [-83.10975, 8.47763], [-83.1092, 8.47763], [-83.1092, 8.47709], [-83.10865, 8.47709], [-83.10865, 8.47655], [-83.1081, 8.47655], [-83.1081, 8.47491], [-83.10755, 8.47491], [-83.10755, 8.47383], [-83.107, 8.47383], [-83.107, 8.47274], [-83.10645, 8.47274], [-83.10645, 8.4722], [-83.1059, 8.4722], [-83.1059, 8.47165], [-83.10535, 8.47165], [-83.10535, 8.47111], [-83.1048, 8.47111], [-83.1048, 8.47002], [-83.10425, 8.47002], [-83.10425, 8.46893], [-83.1037, 8.46893], [-83.1037, 8.46785], [-83.10315, 8.46785], [-83.10315, 8.46513], [-83.1026, 8.46513], [-83.1026, 8.46349], [-83.10205, 8.46349], [-83.10205, 8.46241], [-83.1015, 8.46241], [-83.1015, 8.46186], [-83.10095, 8.46186], [-83.10095, 8.46078], [-83.1004, 8.46078], [-83.1004, 8.46023], [-83.09985, 8.46023], [-83.09985, 8.45969], [-83.0993, 8.45969], [-83.0993, 8.4586], [-83.09875, 8.4586], [-83.09875, 8.45751], [-83.0982, 8.45751], [-83.0982, 8.45697], [-83.09765, 8.45697], [-83.09765, 8.45534], [-83.0971, 8.45534], [-83.0971, 8.4499], [-83.09765, 8.4499], [-83.09765, 8.44881], [-83.09875, 8.44881], [-83.09875, 8.44827], [-83.09985, 8.44827], [-83.09985, 8.44772], [-83.1004, 8.44772], [-83.1004, 8.44718], [-83.10095, 8.44718], [-83.10095, 8.44664], [-83.1015, 8.44664], [-83.1015, 8.44555], [-83.10205, 8.44555], [-83.10205, 8.44337], [-83.1026, 8.44337], [-83.1026, 8.44229], [-83.10315, 8.44229], [-83.10315, 8.4412], [-83.1037, 8.4412], [-83.1037, 8.44065], [-83.10425, 8.44065], [-83.10425, 8.43957], [-83.1048, 8.43957], [-83.1048, 8.43902], [-83.10535, 8.43902], [-83.10535, 8.43793], [-83.1059, 8.43793], [-83.1059, 8.43576], [-83.10645, 8.43576], [-83.10645, 8.42869], [-83.107, 8.42869], [-83.107, 8.42706], [-83.10755, 8.42706], [-83.10755, 8.42597], [-83.1081, 8.42597], [-83.1081, 8.42543], [-83.10865, 8.42543], [-83.10865, 8.42434], [-83.1092, 8.42434], [-83.1092, 8.42325], [-83.10975, 8.42325], [-83.10975, 8.42271], [-83.1103, 8.42271], [-83.1103, 8.42216], [-83.11085, 8.42216], [-83.11085, 8.42162], [-83.11195, 8.42162], [-83.11195, 8.42108], [-83.11305, 8.42108], [-83.11305, 8.42053], [-83.1136, 8.42053], [-83.1136, 8.41999], [-83.11415, 8.41999], [-83.11415, 8.41944], [-83.1147, 8.41944], [-83.1147, 8.41836], [-83.11525, 8.41836], [-83.11525, 8.41618], [-83.1158, 8.41618], [-83.1158, 8.41455], [-83.11635, 8.41455], [-83.11635, 8.41401], [-83.1169, 8.41401], [-83.1169, 8.41346], [-83.11745, 8.41346], [-83.11745, 8.41292], [-83.118, 8.41292], [-83.118, 8.41237], [-83.1191, 8.41237], [-83.1191, 8.41183], [-83.1213, 8.41183], [-83.1213, 8.41129], [-83.12185, 8.41129], [-83.12185, 8.41074], [-83.1224, 8.41074], [-83.1224, 8.4102], [-83.12295, 8.4102], [-83.12295, 8.40911], [-83.1235, 8.40911], [-83.1235, 8.40857], [-83.12405, 8.40857], [-83.12405, 8.40802], [-83.1246, 8.40802], [-83.1246, 8.40748], [-83.12789, 8.40748], [-83.12789, 8.40802], [-83.12899, 8.40802], [-83.12899, 8.40857], [-83.13229, 8.40857], [-83.13229, 8.40802], [-83.13284, 8.40802], [-83.13284, 8.40748], [-83.13339, 8.40748], [-83.13339, 8.40694], [-83.13394, 8.40694], [-83.13394, 8.40585], [-83.13504, 8.40585], [-83.13504, 8.4053], [-83.13559, 8.4053], [-83.13559, 8.40476], [-83.13614, 8.40476], [-83.13614, 8.40422], [-83.13669, 8.40422], [-83.13669, 8.40367], [-83.13724, 8.40367], [-83.13724, 8.40204], [-83.13779, 8.40204], [-83.13779, 8.39987], [-83.13834, 8.39987], [-83.13834, 8.39932], [-83.13889, 8.39932], [-83.13889, 8.39878], [-83.13944, 8.39878], [-83.13944, 8.39824], [-83.13999, 8.39824], [-83.13999, 8.39769], [-83.14054, 8.39769], [-83.14054, 8.3966], [-83.14109, 8.3966], [-83.14109, 8.39497], [-83.14164, 8.39497], [-83.14164, 8.39334], [-83.14219, 8.39334], [-83.14219, 8.3928], [-83.14274, 8.3928], [-83.14274, 8.39225], [-83.14329, 8.39225], [-83.14329, 8.39171], [-83.14384, 8.39171], [-83.14384, 8.39117], [-83.14494, 8.39117], [-83.14494, 8.39008], [-83.14549, 8.39008], [-83.14549, 8.38845], [-83.14604, 8.38845], [-83.14604, 8.3841], [-83.14659, 8.3841], [-83.14659, 8.38138], [-83.14714, 8.38138], [-83.14714, 8.37974], [-83.14769, 8.37974], [-83.14769, 8.37757], [-83.14824, 8.37757], [-83.14824, 8.37159], [-83.14879, 8.37159], [-83.14879, 8.36996], [-83.14934, 8.36996], [-83.14934, 8.36724], [-83.14879, 8.36724], [-83.14879, 8.36669], [-83.14824, 8.36669], [-83.14824, 8.36615], [-83.14769, 8.36615], [-83.14769, 8.36561], [-83.14714, 8.36561], [-83.14714, 8.36506], [-83.14659, 8.36506], [-83.14659, 8.36397], [-83.14604, 8.36397], [-83.14604, 8.35854], [-83.14549, 8.35854], [-83.14549, 8.35745], [-83.14494, 8.35745], [-83.14494, 8.35636], [-83.14439, 8.35636], [-83.14439, 8.35582], [-83.14384, 8.35582], [-83.14384, 8.35527], [-83.14274, 8.35527], [-83.14274, 8.35473], [-83.14219, 8.35473], [-83.14219, 8.35418], [-83.14164, 8.35418], [-83.14164, 8.3531], [-83.14109, 8.3531], [-83.14109, 8.35092], [-83.14054, 8.35092], [-83.14054, 8.34983], [-83.13999, 8.34983], [-83.13999, 8.34929], [-82.99924, 8.34929], [-82.99924, 8.80121], [-83.60129, 8.80121]], [[-83.34012, 8.72671], [-83.33957, 8.72671], [-83.33957, 8.72616], [-83.34012, 8.72616], [-83.34012, 8.72671]], [[-83.32638, 8.68918], [-83.32583, 8.68918], [-83.32583, 8.68864], [-83.32638, 8.68864], [-83.32638, 8.68918]], [[-83.32748, 8.68701], [-83.32638, 8.68701], [-83.32638, 8.68646], [-83.32748, 8.68646], [-83.32748, 8.68701]], [[-83.17903, 8.6484], [-83.17793, 8.6484], [-83.17793, 8.64785], [-83.17903, 8.64785], [-83.17903, 8.6484]], [[-83.18727, 8.64078], [-83.18672, 8.64078], [-83.18672, 8.64024], [-83.18727, 8.64024], [-83.18727, 8.64078]], [[-83.2472, 8.64024], [-83.24666, 8.64024], [-83.24666, 8.63969], [-83.2472, 8.63969], [-83.2472, 8.64024]], [[-83.17243, 8.63698], [-83.17078, 8.63698], [-83.17078, 8.63643], [-83.16913, 8.63643], [-83.16913, 8.63589], [-83.16858, 8.63589], [-83.16858, 8.63534], [-83.16803, 8.63534], [-83.16803, 8.63426], [-83.16748, 8.63426], [-83.16748, 8.63262], [-83.16693, 8.63262], [-83.16693, 8.63045], [-83.16748, 8.63045], [-83.16748, 8.62936], [-83.16803, 8.62936], [-83.16803, 8.62882], [-83.16858, 8.62882], [-83.16858, 8.62827], [-83.16913, 8.62827], [-83.16913, 8.62882], [-83.16968, 8.62882], [-83.16968, 8.62991], [-83.17023, 8.62991], [-83.17023, 8.63045], [-83.17078, 8.63045], [-83.17078, 8.63154], [-83.17133, 8.63154], [-83.17133, 8.63208], [-83.17188, 8.63208], [-83.17188, 8.63426], [-83.17243, 8.63426], [-83.17243, 8.63534], [-83.17298, 8.63534], [-83.17298, 8.63643], [-83.17243, 8.63643], [-83.17243, 8.63698]], [[-83.20542, 8.62882], [-83.20487, 8.62882], [-83.20487, 8.62773], [-83.20542, 8.62773], [-83.20542, 8.62882]], [[-83.16803, 8.62392], [-83.16748, 8.62392], [-83.16748, 8.62338], [-83.16693, 8.62338], [-83.16693, 8.62229], [-83.16638, 8.62229], [-83.16638, 8.61903], [-83.16583, 8.61903], [-83.16583, 8.6174], [-83.16638, 8.6174], [-83.16638, 8.61685], [-83.16858, 8.61685], [-83.16858, 8.61903], [-83.16803, 8.61903], [-83.16803, 8.62066], [-83.16858, 8.62066], [-83.16858, 8.62284], [-83.16803, 8.62284], [-83.16803, 8.62392]], [[-83.14769, 8.61957], [-83.14659, 8.61957], [-83.14659, 8.61903], [-83.14769, 8.61903], [-83.14769, 8.61957]], [[-83.14659, 8.61142], [-83.14604, 8.61142], [-83.14604, 8.61033], [-83.14714, 8.61033], [-83.14714, 8.61087], [-83.14659, 8.61087], [-83.14659, 8.61142]], [[-83.14714, 8.60598], [-83.14274, 8.60598], [-83.14274, 8.60543], [-83.14219, 8.60543], [-83.14219, 8.60489], [-83.14164, 8.60489], [-83.14164, 8.60435], [-83.14109, 8.60435], [-83.14109, 8.60271], [-83.14054, 8.60271], [-83.14054, 8.59891], [-83.13999, 8.59891], [-83.13999, 8.59782], [-83.13944, 8.59782], [-83.13944, 8.59728], [-83.13834, 8.59728], [-83.13834, 8.59673], [-83.13779, 8.59673], [-83.13779, 8.59619], [-83.13724, 8.59619], [-83.13724, 8.59401], [-83.13779, 8.59401], [-83.13779, 8.59293], [-83.13834, 8.59293], [-83.13834, 8.59238], [-83.13944, 8.59238], [-83.13944, 8.59184], [-83.14109, 8.59184], [-83.14109, 8.59129], [-83.14384, 8.59129], [-83.14384, 8.59075], [-83.14659, 8.59075], [-83.14659, 8.59129], [-83.14714, 8.59129], [-83.14714, 8.59184], [-83.14769, 8.59184], [-83.14769, 8.59347], [-83.14824, 8.59347], [-83.14824, 8.59619], [-83.14879, 8.59619], [-83.14879, 8.59728], [-83.14934, 8.59728], [-83.14934, 8.60108], [-83.14879, 8.60108], [-83.14879, 8.60271], [-83.14824, 8.60271], [-83.14824, 8.60489], [-83.14769, 8.60489], [-83.14769, 8.60543], [-83.14714, 8.60543], [-83.14714, 8.60598]], [[-83.16253, 8.5864], [-83.16198, 8.5864], [-83.16198, 8.58586], [-83.16253, 8.58586], [-83.16253, 8.5864]], [[-83.15429, 8.58531], [-83.15264, 8.58531], [-83.15264, 8.58422], [-83.15484, 8.58422], [-83.15484, 8.58477], [-83.15429, 8.58477], [-83.15429, 8.58531]], [[-83.59634, 8.54942], [-83.59579, 8.54942], [-83.59579, 8.54888], [-83.59634, 8.54888], [-83.59634, 8.54942]], [[-83.30659, 8.50102], [-83.30549, 8.50102], [-83.30549, 8.50047], [-83.30659, 8.50047], [-83.30659, 8.50102]], [[-83.57765, 8.44827], [-83.576, 8.44827], [-83.576, 8.44772], [-83.57545, 8.44772], [-83.57545, 8.44609], [-83.5749, 8.44609], [-83.5749, 8.44446], [-83.57545, 8.44446], [-83.57545, 8.44337], [-83.576, 8.44337], [-83.576, 8.44283], [-83.5793, 8.44283], [-83.5793, 8.44337], [-83.58039, 8.44337], [-83.58039, 8.44446], [-83.58094, 8.44446], [-83.58094, 8.445], [-83.58039, 8.445], [-83.58039, 8.44555], [-83.57985, 8.44555], [-83.57985, 8.44609], [-83.57875, 8.44609], [-83.57875, 8.44664], [-83.5782, 8.44664], [-83.5782, 8.44772], [-83.57765, 8.44772], [-83.57765, 8.44827]], [[-83.53366, 8.445], [-83.53311, 8.445], [-83.53311, 8.44446], [-83.53366, 8.44446], [-83.53366, 8.445]], [[-83.55785, 8.44229], [-83.5573, 8.44229], [-83.5573, 8.44174], [-83.55785, 8.44174], [-83.55785, 8.44229]], [[-83.55675, 8.44229], [-83.5562, 8.44229], [-83.5562, 8.44174], [-83.55675, 8.44174], [-83.55675, 8.44229]], [[-83.51277, 8.44174], [-83.50617, 8.44174], [-83.50617, 8.4412], [-83.50452, 8.4412], [-83.50452, 8.43957], [-83.50507, 8.43957], [-83.50507, 8.43902], [-83.50562, 8.43902], [-83.50562, 8.43848], [-83.50672, 8.43848], [-83.50672, 8.43793], [-83.50727, 8.43793], [-83.50727, 8.43739], [-83.50837, 8.43739], [-83.50837, 8.43685], [-83.51112, 8.43685], [-83.51112, 8.43739], [-83.51222, 8.43739], [-83.51222, 8.43793], [-83.51277, 8.43793], [-83.51277, 8.43848], [-83.51772, 8.43848], [-83.51772, 8.43902], [-83.52101, 8.43902], [-83.52101, 8.44011], [-83.51882, 8.44011], [-83.51882, 8.44065], [-83.51552, 8.44065], [-83.51552, 8.4412], [-83.51277, 8.4412], [-83.51277, 8.44174]], [[-83.55015, 8.44065], [-83.54961, 8.44065], [-83.54961, 8.44011], [-83.55015, 8.44011], [-83.55015, 8.44065]], [[-83.45339, 8.44011], [-83.45284, 8.44011], [-83.45284, 8.43957], [-83.45339, 8.43957], [-83.45339, 8.44011]], [[-83.28514, 8.41944], [-83.28459, 8.41944], [-83.28459, 8.4189], [-83.28514, 8.4189], [-83.28514, 8.41944]]]}}]}