{"type": "FeatureCollection", "features": [{"type": "Feature", "properties": {"name": "Corcovado", "desig_eng": "National Park", "iucn_cat": "II", "status_yr": 1975, "gis_area": 442.64697389, "site_id": 164, "realm": "Terrestrial", "mang_auth": "Federal or national ministry or agency"}, "geometry": {"type": "Polygon", "coordinates": [[[-83.58071, 8.63728], [-83.58182, 8.63999], [-83.58391, 8.64043], [-83.58563, 8.64209], [-83.58711, 8.6452], [-83.58564, 8.65018], [-83.60568, 8.65066], [-83.61931, 8.63709], [-83.63294, 8.6371], [-83.63748, 8.63258], [-83.64656, 8.63258], [-83.65565, 8.64162], [-83.66473, 8.64162], [-83.67836, 8.62806], [-83.73892, 8.6281], [-83.74022, 8.62453], [-83.74049, 8.61891], [-83.73788, 8.60194], [-83.73888, 8.60037], [-83.73885, 8.59735], [-83.73587, 8.58864], [-83.73222, 8.5865], [-83.73093, 8.58395], [-83.72596, 8.57961], [-83.72196, 8.57841], [-83.71702, 8.57971], [-83.71535, 8.57903], [-83.71153, 8.57932], [-83.70701, 8.57806], [-83.70339, 8.5758], [-83.69219, 8.56158], [-83.6619, 8.53245], [-83.65052, 8.5174], [-83.63747, 8.50829], [-83.62326, 8.49644], [-83.61402, 8.49041], [-83.60849, 8.48571], [-83.60463, 8.48154], [-83.60151, 8.47588], [-83.59705, 8.47051], [-83.59773, 8.46688], [-83.59415, 8.46051], [-83.59357, 8.45713], [-83.58844, 8.45331], [-83.58453, 8.45226], [-83.5817, 8.45006], [-83.57341, 8.44692], [-83.57455, 8.4448], [-83.57435, 8.44188], [-83.57201, 8.43889], [-83.56991, 8.43757], [-83.56507, 8.43637], [-83.56182, 8.43796], [-83.55646, 8.43766], [-83.54517, 8.43549], [-83.54069, 8.43719], [-83.53892, 8.43944], [-83.52079, 8.44282], [-83.51747, 8.44263], [-83.51196, 8.4444], [-83.50594, 8.44336], [-83.49976, 8.44414], [-83.48709, 8.44313], [-83.48667, 8.44813], [-83.48808, 8.45084], [-83.48538, 8.45545], [-83.48324, 8.45734], [-83.47398, 8.45859], [-83.47439, 8.47435], [-83.46997, 8.48331], [-83.46651, 8.48407], [-83.46068, 8.48227], [-83.45693, 8.4852], [-83.45511, 8.48543], [-83.45317, 8.4815], [-83.4536, 8.48016], [-83.45255, 8.47981], [-83.45064, 8.481], [-83.44969, 8.48024], [-83.44967, 8.48095], [-83.44828, 8.4807], [-83.44856, 8.48298], [-83.4474, 8.48259], [-83.44595, 8.48434], [-83.44456, 8.48487], [-83.44367, 8.48379], [-83.44187, 8.48449], [-83.4409, 8.48593], [-83.43955, 8.4855], [-83.43962, 8.48786], [-83.43553, 8.48711], [-83.43431, 8.49118], [-83.43299, 8.49223], [-83.43131, 8.49154], [-83.42991, 8.4928], [-83.42727, 8.48994], [-83.42357, 8.49199], [-83.42239, 8.49095], [-83.42269, 8.48981], [-83.42143, 8.48939], [-83.42021, 8.49124], [-83.419, 8.49619], [-83.41667, 8.49696], [-83.41626, 8.49883], [-83.41488, 8.49887], [-83.41536, 8.49981], [-83.41336, 8.5009], [-83.41524, 8.50296], [-83.41332, 8.50387], [-83.41226, 8.50561], [-83.42306, 8.52026], [-83.42236, 8.52104], [-83.43511, 8.53787], [-83.43462, 8.53959], [-83.43518, 8.54025], [-83.43702, 8.53989], [-83.43761, 8.5409], [-83.43988, 8.53988], [-83.44809, 8.53943], [-83.45098, 8.54073], [-83.45328, 8.54052], [-83.45819, 8.5432], [-83.46234, 8.54444], [-83.46697, 8.54215], [-83.47791, 8.55896], [-83.48494, 8.55906], [-83.48742, 8.55738], [-83.49665, 8.56087], [-83.49836, 8.55954], [-83.50043, 8.56176], [-83.50033, 8.56309], [-83.50161, 8.56539], [-83.50477, 8.56738], [-83.50504, 8.56952], [-83.50974, 8.57099], [-83.50974, 8.57324], [-83.51185, 8.57472], [-83.51101, 8.57766], [-83.50907, 8.57904], [-83.50927, 8.58031], [-83.51073, 8.58159], [-83.51017, 8.58353], [-83.50809, 8.58605], [-83.50251, 8.58985], [-83.50255, 8.59292], [-83.49806, 8.59278], [-83.49608, 8.59481], [-83.4977, 8.59939], [-83.49643, 8.602], [-83.49822, 8.60512], [-83.49967, 8.60512], [-83.50104, 8.60333], [-83.50251, 8.60282], [-83.50526, 8.59837], [-83.50654, 8.59763], [-83.50807, 8.59822], [-83.50883, 8.59969], [-83.5108, 8.59896], [-83.51081, 8.60281], [-83.51484, 8.60008], [-83.51688, 8.5998], [-83.5159, 8.60198], [-83.51714, 8.60241], [-83.51892, 8.6061], [-83.52055, 8.60383], [-83.52117, 8.60405], [-83.52117, 8.6055], [-83.5234, 8.60736], [-83.52436, 8.60671], [-83.52485, 8.60421], [-83.52348, 8.60274], [-83.52369, 8.6018], [-83.52618, 8.60251], [-83.5273, 8.60116], [-83.52904, 8.60155], [-83.52945, 8.60036], [-83.53268, 8.59953], [-83.5349, 8.60099], [-83.53621, 8.60344], [-83.53761, 8.60382], [-83.53988, 8.60733], [-83.54198, 8.60694], [-83.54194, 8.60804], [-83.54366, 8.61004], [-83.54598, 8.60947], [-83.54605, 8.60769], [-83.54738, 8.60663], [-83.54934, 8.60631], [-83.55147, 8.6078], [-83.5531, 8.60757], [-83.55365, 8.60926], [-83.55573, 8.60983], [-83.55939, 8.61477], [-83.55999, 8.61855], [-83.56136, 8.61975], [-83.56149, 8.62165], [-83.56295, 8.6216], [-83.5661, 8.6246], [-83.56888, 8.62776], [-83.56888, 8.62973], [-83.57176, 8.63013], [-83.57249, 8.63174], [-83.57382, 8.63219], [-83.5739, 8.63551], [-83.57641, 8.63674], [-83.5783, 8.63582], [-83.58071, 8.63728]], [[-83.59338, 8.47321], [-83.59348, 8.47385], [-83.59042, 8.4796], [-83.59002, 8.47939], [-83.59338, 8.47321]]]}}, {"type": "Feature", "properties": {"name": "Golfo Dulce", "desig_eng": "Forest Reserve", "iucn_cat": "VI", "status_yr": 1978, "gis_area": 606.85299118, "site_id": 3317, "realm": "Terrestrial", "mang_auth": "Federal or national ministry or agency"}, "geometry": {"type": "MultiPolygon", "coordinates": [[[[-83.41929, 8.82915], [-83.43109, 8.82916], [-83.43067, 8.81786], [-83.44658, 8.80566], [-83.44659, 8.7817], [-83.43752, 8.76361], [-83.41935, 8.75456], [-83.43752, 8.75457], [-83.43753, 8.74553], [-83.44662, 8.74553], [-83.45343, 8.75458], [-83.44661, 8.76362], [-83.45569, 8.77266], [-83.45841, 8.78668], [-83.49204, 8.78172], [-83.51294, 8.78445], [-83.5284, 8.76366], [-83.52841, 8.75461], [-83.5375, 8.75462], [-83.59202, 8.78176], [-83.59203, 8.73655], [-83.63747, 8.73656], [-83.64929, 8.73204], [-83.62202, 8.71666], [-83.61476, 8.68411], [-83.63566, 8.69632], [-83.64065, 8.68863], [-83.6636, 8.67733], [-83.66473, 8.67326], [-83.70472, 8.67326], [-83.70471, 8.6371], [-83.72833, 8.63709], [-83.72833, 8.62805], [-83.67836, 8.62806], [-83.66473, 8.64162], [-83.65565, 8.64162], [-83.64656, 8.63258], [-83.63748, 8.63258], [-83.63294, 8.6371], [-83.61931, 8.63709], [-83.60568, 8.65066], [-83.58564, 8.65018], [-83.58714, 8.64539], [-83.58563, 8.64209], [-83.58391, 8.64043], [-83.58182, 8.63999], [-83.58035, 8.63692], [-83.57803, 8.63577], [-83.57641, 8.63674], [-83.5739, 8.63551], [-83.57382, 8.63219], [-83.57249, 8.63174], [-83.57176, 8.63013], [-83.56888, 8.62973], [-83.56888, 8.62776], [-83.5661, 8.6246], [-83.56295, 8.6216], [-83.56149, 8.62165], [-83.56136, 8.61975], [-83.55999, 8.61855], [-83.55939, 8.61477], [-83.55573, 8.60983], [-83.55365, 8.60926], [-83.5531, 8.60757], [-83.55147, 8.6078], [-83.54934, 8.60631], [-83.54738, 8.60663], [-83.54605, 8.60769], [-83.54598, 8.60947], [-83.54366, 8.61004], [-83.54194, 8.60804], [-83.54198, 8.60694], [-83.53988, 8.60733], [-83.53761, 8.60382], [-83.53621, 8.60344], [-83.5349, 8.60099], [-83.53268, 8.59953], [-83.52945, 8.60036], [-83.52904, 8.60155], [-83.5273, 8.60116], [-83.52618, 8.60251], [-83.52369, 8.6018], [-83.52348, 8.60274], [-83.52485, 8.60421], [-83.52436, 8.60671], [-83.5234, 8.60736], [-83.52117, 8.6055], [-83.52117, 8.60405], [-83.52055, 8.60383], [-83.51892, 8.6061], [-83.51714, 8.60241], [-83.5159, 8.60198], [-83.51688, 8.5998], [-83.51484, 8.60008], [-83.51081, 8.60281], [-83.5108, 8.59896], [-83.50883, 8.59969], [-83.50807, 8.59822], [-83.50654, 8.59763], [-83.50526, 8.59837], [-83.50306, 8.60228], [-83.4987, 8.60538], [-83.49714, 8.60406], [-83.49643, 8.602], [-83.4977, 8.59939], [-83.49608, 8.59481], [-83.49806, 8.59278], [-83.50255, 8.59292], [-83.50251, 8.58985], [-83.50809, 8.58605], [-83.51017, 8.58353], [-83.51073, 8.58159], [-83.50927, 8.58031], [-83.50907, 8.57904], [-83.51101, 8.57766], [-83.51185, 8.57472], [-83.50974, 8.57324], [-83.50974, 8.57099], [-83.50504, 8.56952], [-83.50477, 8.56738], [-83.50161, 8.56539], [-83.50033, 8.56309], [-83.50043, 8.56176], [-83.49836, 8.55954], [-83.49665, 8.56087], [-83.48742, 8.55738], [-83.48494, 8.55906], [-83.47791, 8.55896], [-83.46697, 8.54215], [-83.46234, 8.54444], [-83.45819, 8.5432], [-83.45328, 8.54052], [-83.45098, 8.54073], [-83.44809, 8.53943], [-83.43988, 8.53988], [-83.43761, 8.5409], [-83.43702, 8.53989], [-83.43518, 8.54025], [-83.43462, 8.53959], [-83.43511, 8.53787], [-83.42236, 8.52104], [-83.42248, 8.51971], [-83.41226, 8.50561], [-83.41332, 8.50387], [-83.41524, 8.50296], [-83.41336, 8.5009], [-83.41536, 8.49981], [-83.41488, 8.49887], [-83.41626, 8.49883], [-83.41667, 8.49696], [-83.419, 8.49619], [-83.42021, 8.49124], [-83.42143, 8.48939], [-83.42269, 8.48981], [-83.42239, 8.49095], [-83.42357, 8.49199], [-83.42727, 8.48994], [-83.42991, 8.4928], [-83.43131, 8.49154], [-83.43299, 8.49223], [-83.43431, 8.49118], [-83.43553, 8.48711], [-83.43962, 8.48786], [-83.43955, 8.4855], [-83.4409, 8.48593], [-83.44187, 8.48449], [-83.44367, 8.48379], [-83.44456, 8.48487], [-83.44595, 8.48434], [-83.44856, 8.48298], [-83.44828, 8.4807], [-83.44967, 8.48095], [-83.44969, 8.48024], [-83.45064, 8.481], [-83.45255, 8.47981], [-83.4536, 8.48016], [-83.45317, 8.4815], [-83.45511, 8.48543], [-83.45693, 8.4852], [-83.46068, 8.48227], [-83.46651, 8.48407], [-83.46997, 8.48331], [-83.47439, 8.47435], [-83.47398, 8.45859], [-83.48324, 8.45734], [-83.48785, 8.45157], [-83.48804, 8.45024], [-83.48672, 8.4477], [-83.4468, 8.43812], [-83.4468, 8.43924], [-83.4475, 8.43915], [-83.44725, 8.44152], [-83.44928, 8.44259], [-83.4504, 8.44263], [-83.45148, 8.44011], [-83.45681, 8.44178], [-83.45763, 8.44305], [-83.45894, 8.44336], [-83.45886, 8.44224], [-83.46193, 8.44264], [-83.47616, 8.4459], [-83.47513, 8.44706], [-83.47358, 8.4529], [-83.46938, 8.45345], [-83.46794, 8.4518], [-83.46557, 8.45193], [-83.4639, 8.45063], [-83.46283, 8.45083], [-83.4632, 8.44917], [-83.45952, 8.44691], [-83.45714, 8.44917], [-83.45583, 8.45281], [-83.45184, 8.44916], [-83.45281, 8.44589], [-83.45015, 8.44626], [-83.4468, 8.4449], [-83.4468, 8.44716], [-83.39231, 8.4435], [-83.38551, 8.43988], [-83.3796, 8.44711], [-83.37824, 8.43807], [-83.3456, 8.41585], [-83.34535, 8.41851], [-83.34685, 8.41926], [-83.34669, 8.42212], [-83.34489, 8.42203], [-83.34488, 8.42293], [-83.34273, 8.42472], [-83.34284, 8.42641], [-83.34023, 8.42629], [-83.33603, 8.43124], [-83.33309, 8.43066], [-83.32981, 8.43144], [-83.32789, 8.42884], [-83.32394, 8.42613], [-83.31534, 8.4252], [-83.31502, 8.41911], [-83.31265, 8.41753], [-83.31131, 8.41369], [-83.31199, 8.41189], [-83.3085, 8.40636], [-83.30828, 8.40433], [-83.30885, 8.40253], [-83.30999, 8.40197], [-83.3127, 8.4022], [-83.31431, 8.40137], [-83.30369, 8.397], [-83.30322, 8.3975], [-83.30183, 8.39624], [-83.29565, 8.39369], [-83.28566, 8.40182], [-83.28972, 8.41991], [-83.30129, 8.42896], [-83.30943, 8.46513], [-83.31964, 8.47419], [-83.32872, 8.47419], [-83.37408, 8.53752], [-83.40315, 8.52217], [-83.4086, 8.52625], [-83.40132, 8.54206], [-83.42719, 8.57418], [-83.46487, 8.6063], [-83.49212, 8.62349], [-83.50665, 8.6287], [-83.51936, 8.65108], [-83.50754, 8.67707], [-83.51934, 8.70172], [-83.50298, 8.699], [-83.50117, 8.69131], [-83.49027, 8.68588], [-83.47391, 8.6913], [-83.47618, 8.69401], [-83.4839, 8.69447], [-83.48526, 8.71165], [-83.48298, 8.71481], [-83.48298, 8.71843], [-83.47935, 8.72204], [-83.47117, 8.72113], [-83.46571, 8.72656], [-83.4598, 8.72655], [-83.45663, 8.72271], [-83.44436, 8.72587], [-83.43754, 8.72157], [-83.43754, 8.7184], [-83.433, 8.71433], [-83.42846, 8.7184], [-83.41709, 8.72562], [-83.408, 8.73647], [-83.40345, 8.73782], [-83.39209, 8.73645], [-83.38482, 8.73961], [-83.38299, 8.75046], [-83.37391, 8.75], [-83.37164, 8.73825], [-83.34665, 8.738], [-83.33757, 8.72737], [-83.32939, 8.72736], [-83.32848, 8.72816], [-83.32847, 8.74138], [-83.31939, 8.73865], [-83.31939, 8.73639], [-83.31122, 8.7296], [-83.3103, 8.73367], [-83.29894, 8.73366], [-83.29938, 8.74722], [-83.2912, 8.74767], [-83.28937, 8.76123], [-83.28301, 8.76348], [-83.27391, 8.77252], [-83.26846, 8.76663], [-83.26483, 8.76798], [-83.27254, 8.78156], [-83.30615, 8.80103], [-83.30573, 8.76531], [-83.31254, 8.77481], [-83.32072, 8.77482], [-83.32433, 8.8015], [-83.33523, 8.80874], [-83.34206, 8.79519], [-83.33843, 8.78072], [-83.34707, 8.78389], [-83.35571, 8.76852], [-83.36071, 8.76808], [-83.35888, 8.79068], [-83.36478, 8.79068], [-83.36476, 8.81781], [-83.38976, 8.81919], [-83.3766, 8.78527], [-83.41024, 8.77716], [-83.41023, 8.7975], [-83.41932, 8.79751], [-83.41929, 8.82915]], [[-83.37272, 8.4673], [-83.36886, 8.46698], [-83.36906, 8.46276], [-83.37013, 8.4614], [-83.37303, 8.45972], [-83.37946, 8.46183], [-83.37972, 8.46642], [-83.37905, 8.46711], [-83.3752, 8.46543], [-83.37447, 8.46668], [-83.37272, 8.4673]], [[-83.35972, 8.46011], [-83.35287, 8.46457], [-83.35181, 8.46195], [-83.35451, 8.46172], [-83.3556, 8.46059], [-83.35597, 8.45782], [-83.35468, 8.45464], [-83.35557, 8.45232], [-83.35499, 8.45056], [-83.35334, 8.4504], [-83.35217, 8.45146], [-83.35151, 8.44991], [-83.35113, 8.44789], [-83.3527, 8.44563], [-83.35373, 8.44593], [-83.35691, 8.44467], [-83.35803, 8.44522], [-83.35826, 8.44752], [-83.35969, 8.44903], [-83.35916, 8.45208], [-83.3606, 8.45593], [-83.35969, 8.45732], [-83.35972, 8.46011]], [[-83.36433, 8.44769], [-83.36267, 8.44431], [-83.36339, 8.44088], [-83.36455, 8.43979], [-83.36906, 8.44173], [-83.36941, 8.44258], [-83.36711, 8.44372], [-83.36556, 8.44689], [-83.36433, 8.44769]]], [[[-83.4468, 8.44434], [-83.44767, 8.44215], [-83.4468, 8.44191], [-83.4468, 8.44191], [-83.4468, 8.44434]]]]}}, {"type": "Feature", "properties": {"name": "Golfito", "desig_eng": "National Wildlife Refuge", "iucn_cat": "VI", "status_yr": 1986, "gis_area": 28.68484826, "site_id": 12492, "realm": "Terrestrial", "mang_auth": "Federal or national ministry or agency"}, "geometry": {"type": "Polygon", "coordinates": [[[-83.16731, 8.64078], [-83.16552, 8.64215], [-83.16471, 8.64112], [-83.16522, 8.63964], [-83.16361, 8.63973], [-83.16267, 8.63855], [-83.16421, 8.63711], [-83.16259, 8.63468], [-83.15772, 8.6302], [-83.15686, 8.63126], [-83.15571, 8.6305], [-83.15685, 8.62843], [-83.15539, 8.62677], [-83.15435, 8.62794], [-83.15287, 8.62688], [-83.15252, 8.62607], [-83.15338, 8.62508], [-83.15065, 8.62204], [-83.14687, 8.62065], [-83.14527, 8.61848], [-83.14326, 8.61734], [-83.14152, 8.61795], [-83.14263, 8.61794], [-83.14399, 8.61925], [-83.14361, 8.62079], [-83.14473, 8.62105], [-83.14513, 8.62266], [-83.14605, 8.62282], [-83.14681, 8.62426], [-83.14799, 8.62411], [-83.14875, 8.6254], [-83.14558, 8.62493], [-83.14662, 8.62613], [-83.14608, 8.62747], [-83.14475, 8.62812], [-83.14651, 8.63009], [-83.14424, 8.63212], [-83.14601, 8.63216], [-83.14868, 8.63592], [-83.15121, 8.63662], [-83.15333, 8.63902], [-83.15355, 8.64046], [-83.15643, 8.64194], [-83.15923, 8.64963], [-83.16449, 8.65292], [-83.16477, 8.65181], [-83.16592, 8.65159], [-83.16755, 8.65421], [-83.17018, 8.65485], [-83.17036, 8.65883], [-83.17112, 8.65869], [-83.17136, 8.66055], [-83.1739, 8.66362], [-83.17862, 8.66372], [-83.18098, 8.66282], [-83.18352, 8.6677], [-83.18588, 8.67024], [-83.19678, 8.6755], [-83.2024, 8.68201], [-83.2084, 8.67985], [-83.21268, 8.67434], [-83.2126, 8.66874], [-83.22215, 8.6579], [-83.22515, 8.65908], [-83.21726, 8.64813], [-83.2229, 8.63939], [-83.2202, 8.63859], [-83.21763, 8.63633], [-83.21685, 8.63425], [-83.21718, 8.63161], [-83.21665, 8.63078], [-83.21398, 8.63015], [-83.21272, 8.62806], [-83.2092, 8.63032], [-83.20618, 8.631], [-83.20485, 8.62993], [-83.20503, 8.62829], [-83.20404, 8.62661], [-83.2018, 8.62816], [-83.19781, 8.62828], [-83.19537, 8.62531], [-83.19169, 8.62532], [-83.18223, 8.62185], [-83.17931, 8.62516], [-83.17729, 8.62566], [-83.17704, 8.62845], [-83.17622, 8.62947], [-83.17661, 8.63229], [-83.17442, 8.63457], [-83.17567, 8.63557], [-83.17729, 8.63477], [-83.17787, 8.63701], [-83.17673, 8.63906], [-83.17974, 8.63971], [-83.18179, 8.63908], [-83.1831, 8.64031], [-83.18396, 8.63984], [-83.18415, 8.63883], [-83.18454, 8.63873], [-83.18387, 8.64305], [-83.18201, 8.64133], [-83.17813, 8.64203], [-83.17574, 8.6412], [-83.1769, 8.6435], [-83.17595, 8.64385], [-83.17723, 8.64412], [-83.17605, 8.64445], [-83.17704, 8.64548], [-83.17656, 8.64683], [-83.18054, 8.64625], [-83.18171, 8.64728], [-83.18172, 8.6517], [-83.18021, 8.65037], [-83.18, 8.64907], [-83.17857, 8.64945], [-83.17737, 8.64853], [-83.17691, 8.64943], [-83.17508, 8.64993], [-83.17484, 8.64854], [-83.17185, 8.64538], [-83.17113, 8.64647], [-83.17028, 8.64643], [-83.17055, 8.64398], [-83.16731, 8.64078]], [[-83.18884, 8.6584], [-83.18702, 8.65794], [-83.18422, 8.65425], [-83.18492, 8.654], [-83.18884, 8.6584]], [[-83.18896, 8.65839], [-83.18861, 8.65747], [-83.1866, 8.65579], [-83.18842, 8.65641], [-83.18956, 8.65809], [-83.18896, 8.65839]]]}}, {"type": "Feature", "properties": {"name": "Marino Ballena", "desig_eng": "National Park", "iucn_cat": "II", "status_yr": 1992, "gis_area": 53.689327090000006, "site_id": 30595, "realm": "Marine", "mang_auth": "Federal or national ministry or agency"}, "geometry": {"type": "Polygon", "coordinates": [[[-83.7549, 9.16367], [-83.75796, 9.16532], [-83.75769, 9.16642], [-83.75844, 9.16553], [-83.7569, 9.16175], [-83.75666, 9.15341], [-83.75388, 9.15436], [-83.75313, 9.15364], [-83.75673, 9.15262], [-83.75735, 9.15953], [-83.75868, 9.16543], [-83.75965, 9.16636], [-83.78301, 9.14341], [-83.78299, 9.09459], [-83.6863, 9.09595], [-83.68558, 9.0978], [-83.68602, 9.0998], [-83.68904, 9.10249], [-83.69169, 9.10632], [-83.69348, 9.10718], [-83.6924, 9.10865], [-83.69338, 9.111], [-83.6978, 9.11466], [-83.70504, 9.11872], [-83.71212, 9.12714], [-83.71348, 9.13], [-83.71683, 9.13303], [-83.72081, 9.13301], [-83.72239, 9.1346], [-83.72342, 9.13934], [-83.72736, 9.14297], [-83.72705, 9.1451], [-83.72897, 9.14704], [-83.72889, 9.14887], [-83.73075, 9.15], [-83.73138, 9.14857], [-83.74072, 9.1524], [-83.74077, 9.15393], [-83.74291, 9.15358], [-83.74425, 9.15521], [-83.74654, 9.15506], [-83.74502, 9.15649], [-83.74576, 9.15702], [-83.74829, 9.15496], [-83.75399, 9.15996], [-83.7549, 9.16367]]]}}, {"type": "Feature", "properties": {"name": "Piedras Blancas", "desig_eng": "National Park", "iucn_cat": "II", "status_yr": 1991, "gis_area": 159.51935367, "site_id": 102367, "realm": "Coastal", "mang_auth": "Federal or national ministry or agency"}, "geometry": {"type": "Polygon", "coordinates": [[[-83.24662, 8.77368], [-83.24885, 8.77555], [-83.24765, 8.77671], [-83.24875, 8.77891], [-83.25111, 8.77458], [-83.25057, 8.77364], [-83.24867, 8.77337], [-83.2483, 8.77184], [-83.25106, 8.76983], [-83.25249, 8.77083], [-83.25456, 8.77096], [-83.25453, 8.76882], [-83.25617, 8.7669], [-83.26122, 8.76848], [-83.26179, 8.76798], [-83.26105, 8.76604], [-83.26298, 8.76582], [-83.26351, 8.7683], [-83.26511, 8.76571], [-83.2672, 8.76648], [-83.26879, 8.76577], [-83.27387, 8.76906], [-83.27472, 8.76845], [-83.27393, 8.7667], [-83.2763, 8.76557], [-83.27522, 8.76368], [-83.27726, 8.76313], [-83.27701, 8.76073], [-83.27848, 8.76273], [-83.27941, 8.76217], [-83.27953, 8.76003], [-83.28259, 8.7608], [-83.28173, 8.76267], [-83.28405, 8.76232], [-83.28662, 8.75944], [-83.28855, 8.75515], [-83.28835, 8.75415], [-83.28645, 8.75309], [-83.2883, 8.7515], [-83.2869, 8.74957], [-83.2881, 8.74901], [-83.28763, 8.74707], [-83.28922, 8.74617], [-83.28889, 8.74419], [-83.28962, 8.74377], [-83.29142, 8.74499], [-83.29449, 8.74357], [-83.29336, 8.741], [-83.29547, 8.73919], [-83.2966, 8.73594], [-83.29641, 8.73425], [-83.29751, 8.73267], [-83.29747, 8.73157], [-83.29576, 8.73123], [-83.29549, 8.73003], [-83.29898, 8.72584], [-83.30427, 8.72583], [-83.30797, 8.7282], [-83.31132, 8.72815], [-83.32121, 8.73187], [-83.32503, 8.73125], [-83.33567, 8.72176], [-83.33887, 8.72748], [-83.35476, 8.71864], [-83.34902, 8.71088], [-83.35087, 8.70377], [-83.35064, 8.69847], [-83.34772, 8.68941], [-83.34829, 8.68201], [-83.34769, 8.67932], [-83.34568, 8.67377], [-83.34254, 8.66854], [-83.33851, 8.66488], [-83.32961, 8.65842], [-83.32566, 8.65672], [-83.31726, 8.65497], [-83.3141, 8.65246], [-83.30388, 8.66735], [-83.30153, 8.66723], [-83.30011, 8.66626], [-83.29472, 8.65333], [-83.29312, 8.65409], [-83.29269, 8.65697], [-83.29353, 8.65668], [-83.29366, 8.65817], [-83.2946, 8.65842], [-83.29427, 8.6602], [-83.29182, 8.66104], [-83.29111, 8.66265], [-83.28856, 8.6587], [-83.28538, 8.65843], [-83.28408, 8.66197], [-83.28302, 8.66281], [-83.28503, 8.66296], [-83.28488, 8.66451], [-83.28306, 8.66506], [-83.28179, 8.66425], [-83.27394, 8.6643], [-83.27585, 8.6595], [-83.27217, 8.65616], [-83.26817, 8.65762], [-83.2684, 8.65922], [-83.26413, 8.65798], [-83.26074, 8.65908], [-83.26015, 8.66026], [-83.26119, 8.66145], [-83.25948, 8.66258], [-83.25958, 8.66345], [-83.25697, 8.6643], [-83.25633, 8.66631], [-83.25622, 8.66478], [-83.25472, 8.66377], [-83.25313, 8.66625], [-83.24287, 8.66193], [-83.24764, 8.6625], [-83.25163, 8.66198], [-83.25357, 8.65969], [-83.25375, 8.65646], [-83.25151, 8.65094], [-83.25221, 8.6492], [-83.25003, 8.64793], [-83.25026, 8.64622], [-83.24761, 8.64063], [-83.2471, 8.63758], [-83.24421, 8.63277], [-83.23928, 8.62954], [-83.23703, 8.62672], [-83.23585, 8.62916], [-83.23583, 8.63155], [-83.23354, 8.63352], [-83.23689, 8.63437], [-83.23777, 8.63705], [-83.23628, 8.63739], [-83.23375, 8.6399], [-83.2308, 8.64147], [-83.23053, 8.64305], [-83.23311, 8.64464], [-83.23129, 8.64511], [-83.23007, 8.64747], [-83.22886, 8.6478], [-83.22987, 8.64957], [-83.22845, 8.65022], [-83.22734, 8.64826], [-83.22749, 8.64624], [-83.22448, 8.64529], [-83.22395, 8.64288], [-83.22519, 8.64271], [-83.2259, 8.64136], [-83.22336, 8.63864], [-83.21726, 8.64813], [-83.22515, 8.65908], [-83.22215, 8.6579], [-83.2126, 8.66874], [-83.21268, 8.67434], [-83.2084, 8.67985], [-83.2022, 8.69716], [-83.20584, 8.69603], [-83.20697, 8.69649], [-83.2056, 8.70168], [-83.20912, 8.70298], [-83.21139, 8.70193], [-83.21552, 8.70451], [-83.21532, 8.70293], [-83.21596, 8.70251], [-83.21831, 8.70173], [-83.21935, 8.70253], [-83.21985, 8.70094], [-83.21916, 8.69945], [-83.21987, 8.69834], [-83.2216, 8.69826], [-83.22285, 8.69572], [-83.22583, 8.6947], [-83.22946, 8.69923], [-83.22928, 8.70076], [-83.22719, 8.70013], [-83.22328, 8.70193], [-83.22282, 8.70464], [-83.22073, 8.70708], [-83.22054, 8.71025], [-83.21399, 8.71865], [-83.21197, 8.71996], [-83.21171, 8.72271], [-83.21534, 8.72634], [-83.20262, 8.72731], [-83.20034, 8.73536], [-83.17991, 8.72177], [-83.16764, 8.72266], [-83.1682, 8.72493], [-83.16987, 8.72624], [-83.17208, 8.72547], [-83.17413, 8.72739], [-83.1758, 8.72685], [-83.17959, 8.72938], [-83.18038, 8.73127], [-83.18265, 8.73154], [-83.18375, 8.7357], [-83.18683, 8.73744], [-83.1873, 8.7398], [-83.19035, 8.74456], [-83.1942, 8.74427], [-83.19662, 8.74557], [-83.2026, 8.74486], [-83.2026, 8.7435], [-83.20524, 8.73943], [-83.2076, 8.73944], [-83.20738, 8.73763], [-83.20829, 8.73555], [-83.20942, 8.73627], [-83.21487, 8.74171], [-83.21522, 8.74984], [-83.21668, 8.74939], [-83.21895, 8.75098], [-83.22039, 8.75699], [-83.22355, 8.75738], [-83.2261, 8.75911], [-83.22447, 8.76107], [-83.22373, 8.76587], [-83.22497, 8.76686], [-83.2271, 8.76671], [-83.22836, 8.76605], [-83.22855, 8.7642], [-83.23225, 8.76424], [-83.23386, 8.76566], [-83.23236, 8.77069], [-83.23296, 8.77327], [-83.2355, 8.77292], [-83.23638, 8.77446], [-83.24006, 8.77403], [-83.24259, 8.77262], [-83.24175, 8.77591], [-83.24328, 8.77638], [-83.24662, 8.77368]], [[-83.3315, 8.7005], [-83.33271, 8.70167], [-83.3327, 8.70222], [-83.33129, 8.70075], [-83.32961, 8.70054], [-83.32841, 8.69851], [-83.33041, 8.69775], [-83.32996, 8.69505], [-83.32598, 8.69336], [-83.32588, 8.69043], [-83.32502, 8.69092], [-83.32426, 8.68933], [-83.32275, 8.68923], [-83.32265, 8.68801], [-83.32396, 8.68833], [-83.32581, 8.68722], [-83.32506, 8.68602], [-83.3254, 8.68497], [-83.32811, 8.68509], [-83.32641, 8.68616], [-83.32628, 8.68945], [-83.32728, 8.69212], [-83.33051, 8.6952], [-83.3315, 8.7005]], [[-83.33006, 8.68518], [-83.32746, 8.68309], [-83.32846, 8.68087], [-83.32697, 8.67936], [-83.32497, 8.68018], [-83.32382, 8.67905], [-83.32138, 8.68061], [-83.32063, 8.68017], [-83.32157, 8.6762], [-83.32041, 8.67458], [-83.31406, 8.67336], [-83.31211, 8.67399], [-83.31323, 8.67612], [-83.31259, 8.67718], [-83.31103, 8.67595], [-83.30962, 8.6764], [-83.3085, 8.67494], [-83.30727, 8.67611], [-83.30653, 8.67438], [-83.30481, 8.67463], [-83.30369, 8.67063], [-83.30521, 8.67058], [-83.30655, 8.67314], [-83.3085, 8.67373], [-83.3144, 8.67267], [-83.32041, 8.67401], [-83.32208, 8.67532], [-83.32222, 8.67763], [-83.32478, 8.6789], [-83.32692, 8.67889], [-83.32873, 8.68029], [-83.32862, 8.68245], [-83.33007, 8.68387], [-83.33033, 8.68476], [-83.33023, 8.68504], [-83.33006, 8.68518]], [[-83.32895, 8.68519], [-83.32882, 8.68517], [-83.32876, 8.68514], [-83.32895, 8.68519]], [[-83.30434, 8.66797], [-83.30522, 8.66855], [-83.30534, 8.6704], [-83.30434, 8.66797]]]}}, {"type": "Feature", "properties": {"name": "Terraba-Sierpe", "desig_eng": "Wetland", "iucn_cat": "II", "status_yr": 1994, "gis_area": 267.822219, "site_id": 108151, "realm": "Coastal", "mang_auth": "Federal or national ministry or agency"}, "geometry": {"type": "MultiPolygon", "coordinates": [[[[-83.43932, 8.84715], [-83.44063, 8.85365], [-83.44526, 8.85525], [-83.44894, 8.85769], [-83.45194, 8.85746], [-83.45376, 8.85344], [-83.45643, 8.85329], [-83.46099, 8.85655], [-83.46738, 8.85553], [-83.46821, 8.85613], [-83.46819, 8.85872], [-83.46899, 8.85957], [-83.47391, 8.85794], [-83.47309, 8.86504], [-83.47379, 8.86813], [-83.47661, 8.871], [-83.48113, 8.87207], [-83.48489, 8.87135], [-83.49161, 8.86512], [-83.49132, 8.86343], [-83.48914, 8.86286], [-83.48672, 8.86055], [-83.48585, 8.85798], [-83.49027, 8.85821], [-83.4938, 8.85607], [-83.49541, 8.85754], [-83.49907, 8.85888], [-83.50705, 8.85871], [-83.51105, 8.85562], [-83.51248, 8.84958], [-83.51714, 8.84893], [-83.51762, 8.85203], [-83.52017, 8.85774], [-83.51814, 8.86198], [-83.51929, 8.86316], [-83.52456, 8.86188], [-83.52653, 8.86368], [-83.52555, 8.8663], [-83.52353, 8.86771], [-83.5224, 8.86617], [-83.52133, 8.8662], [-83.52071, 8.86736], [-83.52236, 8.87044], [-83.52187, 8.87227], [-83.52072, 8.87051], [-83.51929, 8.8706], [-83.51803, 8.87222], [-83.51787, 8.87464], [-83.51638, 8.87534], [-83.5152, 8.87576], [-83.51128, 8.87387], [-83.50818, 8.87649], [-83.50668, 8.87635], [-83.50668, 8.87835], [-83.50596, 8.87899], [-83.50474, 8.87838], [-83.50492, 8.87551], [-83.50388, 8.8754], [-83.50311, 8.87659], [-83.50156, 8.87708], [-83.50255, 8.87872], [-83.50019, 8.87907], [-83.501, 8.88125], [-83.51018, 8.88119], [-83.51335, 8.89023], [-83.51926, 8.89928], [-83.53017, 8.9038], [-83.52835, 8.90968], [-83.53744, 8.91149], [-83.54517, 8.91737], [-83.5579, 8.91466], [-83.56818, 8.91461], [-83.56782, 8.91593], [-83.56969, 8.91783], [-83.56561, 8.91723], [-83.56508, 8.91898], [-83.5672, 8.91953], [-83.56759, 8.92064], [-83.56628, 8.92119], [-83.56531, 8.92017], [-83.56417, 8.92136], [-83.56159, 8.92105], [-83.56144, 8.9219], [-83.56407, 8.9229], [-83.5642, 8.92391], [-83.56137, 8.92431], [-83.56771, 8.93784], [-83.56957, 8.93693], [-83.57002, 8.93954], [-83.57153, 8.93906], [-83.57126, 8.9402], [-83.56968, 8.94087], [-83.57062, 8.94171], [-83.57047, 8.94263], [-83.573, 8.94379], [-83.57421, 8.94275], [-83.575, 8.94438], [-83.57832, 8.94566], [-83.57585, 8.94566], [-83.57523, 8.94774], [-83.57596, 8.94837], [-83.5779, 8.94725], [-83.57923, 8.94745], [-83.5785, 8.94988], [-83.57915, 8.95204], [-83.5819, 8.95047], [-83.58135, 8.94792], [-83.58281, 8.94753], [-83.5841, 8.94774], [-83.58428, 8.95068], [-83.58499, 8.95086], [-83.58663, 8.94912], [-83.58727, 8.95177], [-83.58952, 8.95191], [-83.59177, 8.95373], [-83.59229, 8.95532], [-83.59466, 8.95485], [-83.59397, 8.95195], [-83.59456, 8.95094], [-83.59624, 8.95113], [-83.59766, 8.95231], [-83.59859, 8.95409], [-83.59752, 8.95638], [-83.59748, 8.96229], [-83.60124, 8.96629], [-83.60028, 8.96956], [-83.60107, 8.97257], [-83.6052, 8.97647], [-83.60756, 8.9827], [-83.60771, 8.98523], [-83.60677, 8.98583], [-83.60381, 8.98258], [-83.59886, 8.98399], [-83.59761, 8.98093], [-83.59182, 8.9795], [-83.59103, 8.98079], [-83.59269, 8.98452], [-83.59164, 8.98821], [-83.59205, 8.99212], [-83.58791, 8.99077], [-83.58706, 8.98895], [-83.5861, 8.9886], [-83.58276, 8.99543], [-83.58431, 8.99578], [-83.58658, 8.99406], [-83.5904, 8.99365], [-83.58937, 8.99685], [-83.58968, 8.99824], [-83.60425, 9.01685], [-83.60425, 9.02589], [-83.61281, 9.03848], [-83.61363, 9.03758], [-83.61528, 9.03838], [-83.61925, 9.03598], [-83.62038, 9.04096], [-83.62288, 9.04344], [-83.62736, 9.04543], [-83.62905, 9.04737], [-83.62913, 9.04965], [-83.63135, 9.05093], [-83.63565, 9.05069], [-83.63824, 9.04709], [-83.64786, 9.05024], [-83.65081, 9.05279], [-83.65445, 9.05347], [-83.65548, 9.05298], [-83.65421, 9.04981], [-83.64998, 9.04732], [-83.64096, 9.03505], [-83.63664, 9.02714], [-83.6335, 9.01849], [-83.63198, 9.00785], [-83.63264, 8.98542], [-83.63171, 8.97382], [-83.63008, 8.96335], [-83.62422, 8.95207], [-83.6225, 8.93563], [-83.62311, 8.93033], [-83.62447, 8.9285], [-83.62631, 8.92852], [-83.6255, 8.92219], [-83.62781, 8.91944], [-83.63014, 8.91027], [-83.62256, 8.90833], [-83.62255, 8.90149], [-83.61846, 8.89418], [-83.61845, 8.879], [-83.61665, 8.87245], [-83.61545, 8.87182], [-83.61182, 8.87275], [-83.60662, 8.8711], [-83.60622, 8.86872], [-83.60754, 8.85832], [-83.60514, 8.84846], [-83.60745, 8.84166], [-83.60508, 8.83592], [-83.60749, 8.83225], [-83.60832, 8.82775], [-83.60564, 8.827], [-83.60016, 8.82199], [-83.59926, 8.82009], [-83.6012, 8.8186], [-83.6023, 8.81603], [-83.60027, 8.81213], [-83.60108, 8.80811], [-83.60296, 8.80765], [-83.6055, 8.81003], [-83.60812, 8.8086], [-83.61025, 8.80952], [-83.61178, 8.80832], [-83.61173, 8.80538], [-83.61917, 8.80293], [-83.61927, 8.8018], [-83.62246, 8.7979], [-83.62385, 8.79119], [-83.62373, 8.78642], [-83.62474, 8.78519], [-83.62598, 8.78505], [-83.62499, 8.78422], [-83.62676, 8.78399], [-83.63253, 8.77989], [-83.63747, 8.77864], [-83.63739, 8.77424], [-83.63446, 8.77441], [-83.63376, 8.77212], [-83.63092, 8.77174], [-83.62728, 8.77257], [-83.62575, 8.77401], [-83.623, 8.77412], [-83.62104, 8.77611], [-83.62076, 8.77494], [-83.61912, 8.77411], [-83.62031, 8.77562], [-83.61999, 8.7768], [-83.61717, 8.78117], [-83.61535, 8.78598], [-83.61214, 8.78411], [-83.61042, 8.77811], [-83.607, 8.77606], [-83.60718, 8.77252], [-83.60516, 8.76974], [-83.60535, 8.77139], [-83.60663, 8.77286], [-83.60587, 8.77487], [-83.60109, 8.77292], [-83.60057, 8.76894], [-83.60024, 8.77163], [-83.60124, 8.77372], [-83.60293, 8.77493], [-83.60514, 8.77519], [-83.60564, 8.77662], [-83.61002, 8.77913], [-83.60979, 8.7813], [-83.60825, 8.78154], [-83.61004, 8.78192], [-83.60991, 8.78348], [-83.61091, 8.7835], [-83.61099, 8.78553], [-83.60873, 8.78682], [-83.61081, 8.78677], [-83.61214, 8.78567], [-83.61517, 8.78771], [-83.61518, 8.79338], [-83.59885, 8.7939], [-83.59536, 8.79489], [-83.59205, 8.7974], [-83.58777, 8.79562], [-83.58146, 8.79556], [-83.57825, 8.79795], [-83.57526, 8.80388], [-83.57219, 8.80164], [-83.57299, 8.79921], [-83.5711, 8.79769], [-83.57249, 8.79707], [-83.57271, 8.79608], [-83.57079, 8.79747], [-83.5727, 8.7992], [-83.57148, 8.80064], [-83.56892, 8.79394], [-83.56567, 8.79105], [-83.56294, 8.79083], [-83.56002, 8.79187], [-83.55728, 8.79513], [-83.55415, 8.79467], [-83.55149, 8.79551], [-83.54803, 8.79971], [-83.5454, 8.79614], [-83.54228, 8.79661], [-83.54067, 8.79334], [-83.53989, 8.79381], [-83.5399, 8.79559], [-83.53904, 8.79677], [-83.53766, 8.79734], [-83.53594, 8.79687], [-83.53907, 8.79392], [-83.53781, 8.79162], [-83.53692, 8.79184], [-83.53663, 8.79385], [-83.53399, 8.79592], [-83.53438, 8.79396], [-83.53361, 8.79295], [-83.5333, 8.79461], [-83.5265, 8.80635], [-83.52969, 8.80942], [-83.53289, 8.80981], [-83.5311, 8.81315], [-83.52892, 8.81246], [-83.52742, 8.81372], [-83.52767, 8.81496], [-83.5301, 8.81418], [-83.53108, 8.81518], [-83.5276, 8.81598], [-83.52961, 8.81797], [-83.52641, 8.81862], [-83.52446, 8.82311], [-83.52502, 8.82368], [-83.52591, 8.8229], [-83.52853, 8.81952], [-83.52835, 8.82269], [-83.52927, 8.82432], [-83.52905, 8.82579], [-83.52787, 8.82504], [-83.52704, 8.82559], [-83.52779, 8.82931], [-83.53159, 8.82902], [-83.53334, 8.83148], [-83.53186, 8.83513], [-83.53155, 8.84072], [-83.52806, 8.84262], [-83.52613, 8.84851], [-83.52351, 8.84874], [-83.52216, 8.84967], [-83.52248, 8.85438], [-83.52013, 8.85368], [-83.51824, 8.84831], [-83.51462, 8.84713], [-83.51089, 8.84923], [-83.51003, 8.85122], [-83.51009, 8.85394], [-83.50732, 8.85681], [-83.4974, 8.85701], [-83.49343, 8.85459], [-83.49077, 8.85553], [-83.48931, 8.85728], [-83.4892, 8.85647], [-83.48808, 8.85625], [-83.48568, 8.85705], [-83.48478, 8.85887], [-83.48551, 8.86165], [-83.4875, 8.86354], [-83.49021, 8.86429], [-83.48404, 8.87058], [-83.47867, 8.8708], [-83.47541, 8.86851], [-83.47416, 8.86517], [-83.475, 8.85826], [-83.47413, 8.85676], [-83.47259, 8.85661], [-83.4696, 8.85807], [-83.46795, 8.85503], [-83.46437, 8.85481], [-83.46117, 8.85588], [-83.45613, 8.85246], [-83.45323, 8.8528], [-83.45128, 8.85693], [-83.44905, 8.85694], [-83.44559, 8.85472], [-83.4413, 8.85347], [-83.44028, 8.84822], [-83.43932, 8.84715]]], [[[-83.43932, 8.84715], [-83.44993, 8.84593], [-83.45201, 8.84437], [-83.45221, 8.84208], [-83.45006, 8.84054], [-83.44789, 8.83628], [-83.44498, 8.835], [-83.44568, 8.83336], [-83.44452, 8.83238], [-83.44486, 8.83152], [-83.44769, 8.83362], [-83.44851, 8.83211], [-83.45138, 8.83337], [-83.45536, 8.83623], [-83.46014, 8.83322], [-83.46079, 8.83143], [-83.46929, 8.83144], [-83.46111, 8.8233], [-83.46476, 8.81381], [-83.46294, 8.80703], [-83.46295, 8.79075], [-83.45841, 8.78668], [-83.45569, 8.77266], [-83.44661, 8.76362], [-83.43752, 8.76361], [-83.44659, 8.7817], [-83.44658, 8.80566], [-83.43067, 8.81786], [-83.43111, 8.82961], [-83.41929, 8.8296], [-83.41932, 8.79751], [-83.41024, 8.77716], [-83.41023, 8.7975], [-83.3766, 8.78527], [-83.38976, 8.81919], [-83.36476, 8.81781], [-83.36478, 8.79068], [-83.35888, 8.79068], [-83.36071, 8.76808], [-83.35571, 8.76852], [-83.34707, 8.78389], [-83.33843, 8.78072], [-83.34206, 8.79519], [-83.33523, 8.80874], [-83.32424, 8.80099], [-83.32745, 8.79525], [-83.32719, 8.79313], [-83.33199, 8.79406], [-83.33281, 8.79357], [-83.33119, 8.79134], [-83.33094, 8.78926], [-83.33304, 8.78904], [-83.3358, 8.78996], [-83.3361, 8.78807], [-83.33816, 8.78535], [-83.33696, 8.78186], [-83.33434, 8.78252], [-83.33026, 8.778], [-83.32117, 8.77799], [-83.32072, 8.77482], [-83.31254, 8.77481], [-83.30573, 8.76531], [-83.30593, 8.79846], [-83.30666, 8.79742], [-83.30794, 8.79823], [-83.30893, 8.79708], [-83.31126, 8.79665], [-83.3141, 8.79727], [-83.31749, 8.7992], [-83.31816, 8.79873], [-83.31953, 8.79998], [-83.32255, 8.80013], [-83.32314, 8.80089], [-83.32241, 8.80213], [-83.32269, 8.80432], [-83.3257, 8.80517], [-83.3272, 8.80662], [-83.32879, 8.8067], [-83.33184, 8.80937], [-83.33338, 8.81205], [-83.3364, 8.81311], [-83.34089, 8.81776], [-83.34307, 8.817], [-83.34336, 8.8184], [-83.3452, 8.81877], [-83.3463, 8.82013], [-83.34813, 8.81843], [-83.34838, 8.82024], [-83.35023, 8.82063], [-83.35217, 8.82264], [-83.35717, 8.82166], [-83.35982, 8.82346], [-83.36337, 8.82367], [-83.3665, 8.82745], [-83.37264, 8.83251], [-83.37427, 8.83545], [-83.39719, 8.8418], [-83.40005, 8.84468], [-83.40346, 8.84443], [-83.40709, 8.84577], [-83.40768, 8.84687], [-83.40911, 8.84611], [-83.41223, 8.84947], [-83.43282, 8.8495], [-83.43386, 8.85012], [-83.43932, 8.84715]]]]}}, {"type": "Feature", "properties": {"name": "Terraba-Sierpe", "desig_eng": "Wetland of International Importance (Ramsar Site)", "iucn_cat": "Not Reported", "status_yr": 1995, "gis_area": 362.67039221, "site_id": 145527, "realm": "Coastal", "mang_auth": "Not Reported"}, "geometry": {"type": "Polygon", "coordinates": [[[-83.36495, 8.81516], [-83.36498, 8.78804], [-83.35907, 8.78803], [-83.3609, 8.76544], [-83.35591, 8.76589], [-83.34967, 8.77697], [-83.34892, 8.77514], [-83.34835, 8.77713], [-83.34727, 8.77748], [-83.34639, 8.7798], [-83.34727, 8.78016], [-83.34726, 8.78125], [-83.33863, 8.77807], [-83.33934, 8.78089], [-83.33869, 8.78063], [-83.33917, 8.78228], [-83.33847, 8.78366], [-83.34034, 8.78601], [-83.3396, 8.78951], [-83.34153, 8.78965], [-83.34225, 8.79254], [-83.3411, 8.79484], [-83.33876, 8.79483], [-83.33775, 8.79321], [-83.33437, 8.79221], [-83.33198, 8.79367], [-83.33341, 8.79466], [-83.33461, 8.79905], [-83.3361, 8.79929], [-83.3357, 8.80115], [-83.33649, 8.80398], [-83.33543, 8.80609], [-83.32453, 8.79885], [-83.3245, 8.79855], [-83.32785, 8.79242], [-83.3273, 8.79085], [-83.33223, 8.79142], [-83.33121, 8.78704], [-83.33218, 8.78641], [-83.33522, 8.7867], [-83.33774, 8.78417], [-83.33785, 8.78201], [-83.33672, 8.77928], [-83.33455, 8.77997], [-83.33045, 8.7754], [-83.32135, 8.77539], [-83.32092, 8.77218], [-83.31302, 8.77217], [-83.30594, 8.76268], [-83.30603, 8.7706], [-83.30501, 8.77092], [-83.30607, 8.77411], [-83.30632, 8.79569], [-83.32402, 8.79796], [-83.32296, 8.79923], [-83.32287, 8.80142], [-83.32424, 8.80194], [-83.32397, 8.80315], [-83.32505, 8.80544], [-83.32939, 8.80855], [-83.33664, 8.81893], [-83.33589, 8.82502], [-83.33697, 8.82853], [-83.33669, 8.83083], [-83.33751, 8.83393], [-83.34001, 8.83643], [-83.34042, 8.83873], [-83.34191, 8.84075], [-83.35547, 8.8467], [-83.35697, 8.84832], [-83.35683, 8.8494], [-83.35927, 8.85183], [-83.36741, 8.85697], [-83.37324, 8.85778], [-83.37432, 8.85945], [-83.37396, 8.86013], [-83.37637, 8.86024], [-83.38477, 8.86441], [-83.38588, 8.86524], [-83.38567, 8.86806], [-83.38798, 8.86914], [-83.39024, 8.86859], [-83.39165, 8.86955], [-83.3929, 8.87508], [-83.3963, 8.87778], [-83.39752, 8.87751], [-83.40294, 8.8852], [-83.418, 8.88818], [-83.42153, 8.89129], [-83.42397, 8.89143], [-83.42723, 8.88995], [-83.4313, 8.89049], [-83.4286, 8.86916], [-83.42972, 8.87088], [-83.43469, 8.87156], [-83.43664, 8.87311], [-83.43966, 8.8736], [-83.44638, 8.877], [-83.44979, 8.87564], [-83.45515, 8.87196], [-83.45613, 8.86905], [-83.46149, 8.86906], [-83.46295, 8.86828], [-83.46051, 8.86615], [-83.45983, 8.8645], [-83.45876, 8.85752], [-83.4574, 8.85587], [-83.45244, 8.8552], [-83.45404, 8.85191], [-83.45517, 8.85122], [-83.46129, 8.8545], [-83.46617, 8.85342], [-83.46762, 8.85378], [-83.46767, 8.85611], [-83.46841, 8.85688], [-83.47307, 8.8556], [-83.47345, 8.85901], [-83.47268, 8.86176], [-83.47335, 8.86509], [-83.47653, 8.86909], [-83.4808, 8.86996], [-83.48466, 8.8693], [-83.49168, 8.86352], [-83.49193, 8.86033], [-83.48862, 8.85917], [-83.48975, 8.85861], [-83.4918, 8.85541], [-83.49444, 8.8549], [-83.49736, 8.85621], [-83.50285, 8.85668], [-83.50762, 8.85603], [-83.51105, 8.85345], [-83.51287, 8.84789], [-83.51677, 8.84695], [-83.51739, 8.85028], [-83.51925, 8.85335], [-83.51684, 8.85367], [-83.5145, 8.85222], [-83.51002, 8.85755], [-83.50862, 8.85672], [-83.5074, 8.85857], [-83.5038, 8.85982], [-83.49908, 8.85826], [-83.49957, 8.86023], [-83.49841, 8.85979], [-83.49826, 8.86066], [-83.49928, 8.86263], [-83.50063, 8.8622], [-83.50111, 8.86331], [-83.50048, 8.86446], [-83.49942, 8.8635], [-83.4985, 8.86427], [-83.49932, 8.86696], [-83.49884, 8.86907], [-83.50067, 8.8696], [-83.50048, 8.87119], [-83.50101, 8.87071], [-83.50244, 8.87139], [-83.50141, 8.8727], [-83.49826, 8.87191], [-83.49618, 8.87518], [-83.49598, 8.87998], [-83.49313, 8.88296], [-83.49501, 8.88287], [-83.49709, 8.88465], [-83.49994, 8.88513], [-83.50134, 8.8845], [-83.50231, 8.88277], [-83.50458, 8.88446], [-83.50656, 8.88292], [-83.50898, 8.88278], [-83.51205, 8.889], [-83.51205, 8.8902], [-83.50958, 8.89208], [-83.50977, 8.89515], [-83.51137, 8.89703], [-83.51395, 8.89874], [-83.51584, 8.89725], [-83.51946, 8.8985], [-83.52101, 8.89836], [-83.5212, 8.89762], [-83.53048, 8.9015], [-83.52854, 8.90729], [-83.53765, 8.90913], [-83.54527, 8.91495], [-83.56164, 8.92215], [-83.56776, 8.93508], [-83.56946, 8.93452], [-83.56996, 8.93678], [-83.57144, 8.93644], [-83.57094, 8.93751], [-83.56974, 8.93785], [-83.57071, 8.93991], [-83.57287, 8.94115], [-83.57405, 8.94028], [-83.57495, 8.94165], [-83.57791, 8.94306], [-83.57635, 8.94295], [-83.57533, 8.94489], [-83.57575, 8.94562], [-83.57878, 8.94497], [-83.57892, 8.94896], [-83.5802, 8.94925], [-83.58183, 8.94805], [-83.58233, 8.94718], [-83.58183, 8.94544], [-83.58356, 8.94534], [-83.58502, 8.94802], [-83.58687, 8.94692], [-83.58774, 8.9492], [-83.59001, 8.94967], [-83.59075, 8.95075], [-83.59051, 8.9515], [-83.59003, 8.95096], [-83.58924, 8.95033], [-83.59043, 8.95197], [-83.58909, 8.95327], [-83.58831, 8.95552], [-83.58903, 8.95567], [-83.59024, 8.95219], [-83.59484, 8.95562], [-83.59732, 8.95518], [-83.59733, 8.95881], [-83.60151, 8.96358], [-83.60106, 8.96573], [-83.60014, 8.96645], [-83.60463, 8.96854], [-83.6073, 8.97197], [-83.61007, 8.97792], [-83.61036, 8.98267], [-83.6081, 8.98077], [-83.60645, 8.97581], [-83.60482, 8.9747], [-83.59663, 8.97246], [-83.59486, 8.97061], [-83.59204, 8.97065], [-83.58573, 8.97291], [-83.58376, 8.9751], [-83.585, 8.98592], [-83.58454, 8.98734], [-83.58136, 8.98764], [-83.58001, 8.98701], [-83.58011, 8.98562], [-83.58194, 8.98533], [-83.58243, 8.98432], [-83.58131, 8.98427], [-83.58122, 8.98235], [-83.5804, 8.9836], [-83.57928, 8.98341], [-83.57798, 8.98663], [-83.57687, 8.98644], [-83.57667, 8.98471], [-83.57435, 8.98639], [-83.57076, 8.98349], [-83.56967, 8.98044], [-83.56938, 8.98175], [-83.56996, 8.9832], [-83.57165, 8.98457], [-83.57218, 8.98793], [-83.57305, 8.98855], [-83.57367, 8.99091], [-83.57918, 8.99538], [-83.58085, 9.00057], [-83.5857, 9.00007], [-83.58964, 9.0011], [-83.59093, 9.00211], [-83.59137, 9.00437], [-83.59817, 9.00634], [-83.60451, 9.01447], [-83.60413, 9.02341], [-83.60592, 9.03177], [-83.60969, 9.03701], [-83.61404, 9.03788], [-83.61733, 9.03701], [-83.61941, 9.04009], [-83.624, 9.04307], [-83.62308, 9.04538], [-83.62772, 9.04749], [-83.63314, 9.04874], [-83.63741, 9.04766], [-83.63938, 9.05103], [-83.64747, 9.05957], [-83.65572, 9.0657], [-83.65586, 9.06835], [-83.65765, 9.06931], [-83.65911, 9.07172], [-83.6626, 9.07476], [-83.66366, 9.07746], [-83.66575, 9.079], [-83.66866, 9.07746], [-83.66953, 9.07804], [-83.67193, 9.07701], [-83.67382, 9.07787], [-83.67515, 9.0773], [-83.67983, 9.08072], [-83.67787, 9.08416], [-83.67942, 9.08852], [-83.68233, 9.09061], [-83.68286, 9.09218], [-83.68814, 9.09242], [-83.6886, 9.09143], [-83.68346, 9.09128], [-83.68316, 9.09004], [-83.67988, 9.08735], [-83.67947, 9.0843], [-83.68124, 9.08077], [-83.68085, 9.08019], [-83.67608, 9.0768], [-83.67283, 9.07665], [-83.67124, 9.07541], [-83.66241, 9.05801], [-83.65452, 9.04715], [-83.64724, 9.03984], [-83.64669, 9.03755], [-83.64219, 9.02919], [-83.64083, 9.028], [-83.63707, 9.02014], [-83.63548, 9.01499], [-83.63414, 9.00911], [-83.63382, 8.97367], [-83.63188, 8.96254], [-83.63213, 8.96002], [-83.62918, 8.95373], [-83.62601, 8.9491], [-83.62604, 8.94765], [-83.62887, 8.94419], [-83.62749, 8.9321], [-83.62506, 8.92867], [-83.62207, 8.92701], [-83.62437, 8.92313], [-83.62416, 8.91431], [-83.62323, 8.91326], [-83.61183, 8.91006], [-83.6114, 8.90802], [-83.60971, 8.90646], [-83.60753, 8.90187], [-83.60763, 8.90118], [-83.61673, 8.89658], [-83.62036, 8.89249], [-83.62083, 8.87698], [-83.62008, 8.87193], [-83.6175, 8.86757], [-83.61278, 8.86835], [-83.60478, 8.86634], [-83.60238, 8.86392], [-83.5991, 8.86218], [-83.59694, 8.86214], [-83.59214, 8.85811], [-83.58919, 8.85444], [-83.59212, 8.85059], [-83.59823, 8.85129], [-83.60366, 8.84895], [-83.60591, 8.84708], [-83.60717, 8.84273], [-83.60353, 8.83702], [-83.60403, 8.83557], [-83.60649, 8.83531], [-83.60918, 8.83297], [-83.61054, 8.82703], [-83.61839, 8.82514], [-83.62103, 8.82058], [-83.62541, 8.82176], [-83.62962, 8.81966], [-83.63121, 8.81712], [-83.63268, 8.81636], [-83.63483, 8.81698], [-83.63644, 8.81625], [-83.63799, 8.81313], [-83.64011, 8.81238], [-83.64173, 8.81023], [-83.64364, 8.8037], [-83.64727, 8.80097], [-83.64861, 8.79637], [-83.65392, 8.79315], [-83.65445, 8.79074], [-83.6537, 8.78876], [-83.65038, 8.78714], [-83.64715, 8.78798], [-83.64664, 8.78553], [-83.6395, 8.7741], [-83.64104, 8.7712], [-83.64246, 8.77127], [-83.64628, 8.76858], [-83.65015, 8.76771], [-83.65095, 8.76507], [-83.64915, 8.76505], [-83.64822, 8.76666], [-83.64686, 8.76615], [-83.64534, 8.76685], [-83.64179, 8.7695], [-83.64051, 8.76833], [-83.63937, 8.76938], [-83.63867, 8.77178], [-83.6379, 8.77114], [-83.63669, 8.77188], [-83.63445, 8.77141], [-83.63434, 8.76952], [-83.63234, 8.7689], [-83.62799, 8.76946], [-83.62611, 8.77106], [-83.62475, 8.77098], [-83.62496, 8.76908], [-83.62331, 8.76864], [-83.62264, 8.76686], [-83.62147, 8.76601], [-83.61861, 8.76606], [-83.61753, 8.76677], [-83.61793, 8.77158], [-83.61686, 8.77661], [-83.61431, 8.77772], [-83.61413, 8.77389], [-83.61225, 8.77349], [-83.61341, 8.77158], [-83.61306, 8.76975], [-83.61167, 8.76833], [-83.60997, 8.76846], [-83.6088, 8.76481], [-83.6063, 8.76387], [-83.60648, 8.7616], [-83.60518, 8.76089], [-83.60305, 8.75688], [-83.60314, 8.76], [-83.60122, 8.76044], [-83.60234, 8.76369], [-83.60033, 8.76662], [-83.6005, 8.76993], [-83.60198, 8.77282], [-83.60041, 8.77411], [-83.59884, 8.77385], [-83.59844, 8.77496], [-83.59593, 8.77358], [-83.59517, 8.77438], [-83.59598, 8.77607], [-83.5992, 8.77834], [-83.59763, 8.78048], [-83.59871, 8.78133], [-83.60023, 8.78106], [-83.59929, 8.78311], [-83.60247, 8.78859], [-83.60108, 8.79081], [-83.59641, 8.79155], [-83.59264, 8.79434], [-83.58662, 8.79258], [-83.58272, 8.79307], [-83.58027, 8.78939], [-83.58215, 8.78539], [-83.57949, 8.78726], [-83.57845, 8.78669], [-83.57694, 8.78783], [-83.57567, 8.7866], [-83.57379, 8.78641], [-83.57483, 8.78568], [-83.57451, 8.78363], [-83.57524, 8.78248], [-83.57133, 8.78291], [-83.56914, 8.78099], [-83.56944, 8.78402], [-83.56852, 8.78406], [-83.56783, 8.78248], [-83.56736, 8.78559], [-83.56664, 8.78612], [-83.56382, 8.7842], [-83.56138, 8.78772], [-83.56061, 8.78641], [-83.5588, 8.78625], [-83.557, 8.78418], [-83.5548, 8.78371], [-83.55684, 8.78583], [-83.55522, 8.78613], [-83.55522, 8.78743], [-83.55379, 8.78724], [-83.55313, 8.78888], [-83.55371, 8.79099], [-83.55205, 8.79125], [-83.55062, 8.79274], [-83.54806, 8.79258], [-83.54673, 8.79132], [-83.54851, 8.78979], [-83.54724, 8.7899], [-83.54744, 8.78814], [-83.55032, 8.78826], [-83.5531, 8.78566], [-83.55354, 8.78285], [-83.55238, 8.7808], [-83.551, 8.78037], [-83.54843, 8.77707], [-83.54773, 8.77768], [-83.54743, 8.77668], [-83.54816, 8.77576], [-83.54966, 8.77619], [-83.55144, 8.7752], [-83.55398, 8.77536], [-83.5531, 8.77467], [-83.5538, 8.77225], [-83.54894, 8.77316], [-83.54867, 8.77136], [-83.54582, 8.77285], [-83.5452, 8.77476], [-83.54359, 8.77265], [-83.54293, 8.77345], [-83.54189, 8.7728], [-83.54071, 8.77413], [-83.54024, 8.77222], [-83.53908, 8.77256], [-83.53701, 8.76933], [-83.53608, 8.77006], [-83.5352, 8.7691], [-83.53516, 8.77105], [-83.53442, 8.77159], [-83.53584, 8.77447], [-83.53843, 8.77683], [-83.53806, 8.77788], [-83.53541, 8.77768], [-83.53735, 8.77897], [-83.5367, 8.78244], [-83.53304, 8.785], [-83.53046, 8.78441], [-83.52849, 8.7859], [-83.52653, 8.78521], [-83.52879, 8.78767], [-83.52732, 8.78962], [-83.52863, 8.792], [-83.52866, 8.79433], [-83.52816, 8.79468], [-83.52616, 8.79184], [-83.52454, 8.79252], [-83.52466, 8.79375], [-83.52319, 8.79485], [-83.51957, 8.79285], [-83.51968, 8.79442], [-83.52107, 8.79619], [-83.51721, 8.79762], [-83.51965, 8.79835], [-83.52106, 8.7973], [-83.52121, 8.79814], [-83.51674, 8.79917], [-83.51961, 8.79986], [-83.52005, 8.80117], [-83.52102, 8.80021], [-83.52535, 8.80666], [-83.52388, 8.80746], [-83.52407, 8.8088], [-83.52223, 8.80826], [-83.52096, 8.80657], [-83.52227, 8.80615], [-83.52139, 8.80577], [-83.52038, 8.80596], [-83.51995, 8.80783], [-83.51807, 8.80725], [-83.5178, 8.80829], [-83.51914, 8.80879], [-83.51948, 8.81212], [-83.51771, 8.81296], [-83.51686, 8.812], [-83.51581, 8.81533], [-83.51354, 8.81464], [-83.51427, 8.81564], [-83.51373, 8.81717], [-83.51531, 8.8169], [-83.51569, 8.81851], [-83.51897, 8.81634], [-83.52028, 8.81707], [-83.51916, 8.81799], [-83.51954, 8.81879], [-83.52135, 8.8173], [-83.52282, 8.81761], [-83.52189, 8.81999], [-83.52446, 8.82118], [-83.52249, 8.82305], [-83.52388, 8.82329], [-83.52276, 8.82486], [-83.5238, 8.82559], [-83.52364, 8.82666], [-83.52451, 8.82628], [-83.52502, 8.82762], [-83.52599, 8.82735], [-83.52606, 8.82801], [-83.5278, 8.82736], [-83.5278, 8.83105], [-83.52973, 8.8314], [-83.52984, 8.83281], [-83.5309, 8.83313], [-83.52951, 8.83601], [-83.52836, 8.83605], [-83.52861, 8.83823], [-83.52639, 8.83745], [-83.524, 8.83936], [-83.52264, 8.83913], [-83.52204, 8.83778], [-83.52071, 8.83826], [-83.52024, 8.84271], [-83.51891, 8.8427], [-83.51842, 8.83979], [-83.51731, 8.83903], [-83.51618, 8.83931], [-83.51601, 8.83851], [-83.51388, 8.83899], [-83.5143, 8.83829], [-83.51653, 8.83799], [-83.51521, 8.83682], [-83.51703, 8.83627], [-83.51481, 8.83443], [-83.51519, 8.83343], [-83.51358, 8.83351], [-83.5124, 8.83073], [-83.51196, 8.83294], [-83.50769, 8.83594], [-83.5073, 8.83846], [-83.50837, 8.84088], [-83.50993, 8.8402], [-83.51159, 8.84098], [-83.5109, 8.84243], [-83.50788, 8.8434], [-83.51071, 8.84447], [-83.50866, 8.84689], [-83.5099, 8.84761], [-83.50892, 8.85234], [-83.50658, 8.85375], [-83.49764, 8.85372], [-83.49415, 8.85153], [-83.49421, 8.85085], [-83.49604, 8.85062], [-83.49587, 8.85017], [-83.49432, 8.8496], [-83.49552, 8.85028], [-83.49387, 8.85062], [-83.48977, 8.85372], [-83.48843, 8.85314], [-83.48572, 8.85434], [-83.48469, 8.85738], [-83.48524, 8.85895], [-83.48767, 8.86144], [-83.48991, 8.86186], [-83.48347, 8.86775], [-83.47867, 8.86796], [-83.47582, 8.86557], [-83.47485, 8.86322], [-83.47517, 8.85595], [-83.47326, 8.8536], [-83.46964, 8.85524], [-83.4689, 8.8526], [-83.46732, 8.85178], [-83.46143, 8.85304], [-83.45749, 8.84997], [-83.45391, 8.84961], [-83.4528, 8.85046], [-83.45126, 8.85408], [-83.44992, 8.85404], [-83.44629, 8.8518], [-83.44203, 8.8506], [-83.44123, 8.84957], [-83.44102, 8.8457], [-83.44004, 8.84466], [-83.44488, 8.84468], [-83.44494, 8.84406], [-83.44994, 8.84344], [-83.45351, 8.84113], [-83.45682, 8.84093], [-83.45627, 8.83958], [-83.45857, 8.83968], [-83.46264, 8.83649], [-83.45878, 8.83385], [-83.45838, 8.8333], [-83.45913, 8.83245], [-83.46435, 8.83051], [-83.46492, 8.82902], [-83.47177, 8.82907], [-83.47277, 8.82802], [-83.47252, 8.82632], [-83.47097, 8.82522], [-83.46666, 8.82522], [-83.46545, 8.82148], [-83.46475, 8.82078], [-83.46245, 8.82108], [-83.46188, 8.82016], [-83.46239, 8.82032], [-83.46251, 8.81742], [-83.46381, 8.81403], [-83.46626, 8.81006], [-83.46496, 8.80936], [-83.46456, 8.80502], [-83.46617, 8.80387], [-83.46371, 8.80347], [-83.46552, 8.80158], [-83.46326, 8.80078], [-83.46301, 8.79993], [-83.46482, 8.79818], [-83.46412, 8.79474], [-83.46648, 8.78836], [-83.46427, 8.78771], [-83.46472, 8.78636], [-83.46726, 8.78414], [-83.47082, 8.78435], [-83.47345, 8.78174], [-83.46196, 8.78337], [-83.46029, 8.78558], [-83.45857, 8.78386], [-83.45585, 8.77002], [-83.44677, 8.76098], [-83.45002, 8.75667], [-83.44889, 8.75651], [-83.44794, 8.75368], [-83.44413, 8.75293], [-83.44112, 8.75547], [-83.4404, 8.75815], [-83.43793, 8.75758], [-83.43711, 8.76009], [-83.44676, 8.77906], [-83.44675, 8.80301], [-83.43084, 8.8152], [-83.43128, 8.8265], [-83.41947, 8.8265], [-83.41949, 8.79486], [-83.4104, 8.79485], [-83.41042, 8.77452], [-83.37679, 8.78263], [-83.38994, 8.81653], [-83.36495, 8.81516]], [[-83.60806, 8.82557], [-83.60765, 8.82912], [-83.60589, 8.82463], [-83.60066, 8.81978], [-83.59952, 8.81764], [-83.59957, 8.81679], [-83.60163, 8.81545], [-83.60246, 8.81319], [-83.60047, 8.80952], [-83.60109, 8.8055], [-83.6032, 8.80479], [-83.60605, 8.80731], [-83.60801, 8.80578], [-83.61047, 8.80668], [-83.61182, 8.8056], [-83.61213, 8.80233], [-83.61946, 8.7999], [-83.61946, 8.79889], [-83.62265, 8.79499], [-83.62282, 8.7916], [-83.62393, 8.78913], [-83.62398, 8.78311], [-83.6262, 8.78194], [-83.62518, 8.78128], [-83.62672, 8.78121], [-83.63292, 8.77691], [-83.6388, 8.776], [-83.64535, 8.7865], [-83.64643, 8.79066], [-83.651, 8.78923], [-83.65285, 8.79062], [-83.65299, 8.79198], [-83.64888, 8.79424], [-83.64664, 8.7968], [-83.64674, 8.7993], [-83.64243, 8.80298], [-83.6409, 8.80937], [-83.63934, 8.81183], [-83.63658, 8.81094], [-83.63539, 8.81475], [-83.63365, 8.81463], [-83.63058, 8.81632], [-83.62912, 8.81913], [-83.62541, 8.82088], [-83.62473, 8.82008], [-83.62555, 8.81953], [-83.62552, 8.81815], [-83.62348, 8.81774], [-83.62212, 8.81862], [-83.62012, 8.81791], [-83.61808, 8.82054], [-83.61798, 8.82287], [-83.61547, 8.82325], [-83.61254, 8.82514], [-83.61136, 8.82395], [-83.60996, 8.82382], [-83.60806, 8.82557]], [[-83.60495, 8.77217], [-83.60499, 8.7722], [-83.60491, 8.77217], [-83.60495, 8.77217]]]}}, {"type": "Feature", "properties": {"name": "Osa", "desig_eng": "National Wildlife Refuge", "iucn_cat": "VI", "status_yr": 1999, "gis_area": 17.4955981, "site_id": 555643534, "realm": "Terrestrial", "mang_auth": "Federal or national ministry or agency"}, "geometry": {"type": "MultiPolygon", "coordinates": [[[[-83.3298, 8.43144], [-83.33309, 8.43066], [-83.33603, 8.43124], [-83.34023, 8.42629], [-83.34283, 8.42641], [-83.34272, 8.42472], [-83.34488, 8.42293], [-83.34488, 8.42204], [-83.34668, 8.42212], [-83.34685, 8.41927], [-83.34535, 8.41851], [-83.34535, 8.41729], [-83.34683, 8.4129], [-83.34673, 8.40862], [-83.34561, 8.40603], [-83.34064, 8.40376], [-83.34165, 8.4015], [-83.34263, 8.40121], [-83.34382, 8.39713], [-83.3202, 8.38744], [-83.3176, 8.39039], [-83.31747, 8.39478], [-83.31633, 8.3976], [-83.31689, 8.39906], [-83.31383, 8.40176], [-83.30885, 8.40253], [-83.3085, 8.40636], [-83.31199, 8.41189], [-83.3113, 8.41369], [-83.31265, 8.41753], [-83.31502, 8.41911], [-83.31534, 8.4252], [-83.32394, 8.42613], [-83.32789, 8.42885], [-83.3298, 8.43144]]], [[[-83.35181, 8.46195], [-83.35286, 8.46457], [-83.35874, 8.46129], [-83.36016, 8.45907], [-83.35969, 8.45732], [-83.36059, 8.45593], [-83.35915, 8.45208], [-83.35968, 8.44903], [-83.35825, 8.44753], [-83.35802, 8.44522], [-83.35691, 8.44467], [-83.35373, 8.44594], [-83.3527, 8.44563], [-83.35112, 8.44789], [-83.35217, 8.45146], [-83.35334, 8.4504], [-83.35498, 8.45056], [-83.35556, 8.45232], [-83.35468, 8.45464], [-83.35596, 8.45782], [-83.3556, 8.46059], [-83.3545, 8.46172], [-83.35181, 8.46195]]], [[[-83.29156, 8.37533], [-83.28872, 8.37796], [-83.28842, 8.37939], [-83.28926, 8.38047], [-83.28568, 8.38641], [-83.28714, 8.38659], [-83.28964, 8.38878], [-83.29253, 8.38416], [-83.29609, 8.38249], [-83.29774, 8.37877], [-83.29788, 8.37701], [-83.29156, 8.37533]]], [[[-83.30885, 8.3817], [-83.30595, 8.38796], [-83.30675, 8.39026], [-83.31031, 8.38612], [-83.31156, 8.38338], [-83.30885, 8.3817]]], [[[-83.29884, 8.39271], [-83.30321, 8.3975], [-83.30425, 8.39545], [-83.30661, 8.39366], [-83.30687, 8.39119], [-83.30401, 8.39105], [-83.29884, 8.39271]]], [[[-83.36885, 8.46698], [-83.37272, 8.4673], [-83.37446, 8.46668], [-83.37519, 8.46543], [-83.37905, 8.46711], [-83.37972, 8.46642], [-83.37946, 8.46183], [-83.37302, 8.45972], [-83.36906, 8.46276], [-83.36885, 8.46698]]], [[[-83.36305, 8.44197], [-83.36266, 8.44431], [-83.36433, 8.44769], [-83.36556, 8.44689], [-83.3671, 8.44372], [-83.36941, 8.44258], [-83.36877, 8.44153], [-83.36454, 8.43979], [-83.36305, 8.44197]]]]}}]}